name,lat,lon,address,website,contact:website,contact:phone,opening_hours,operator,brand
Superpower Car Wash,-37.8461133,145.2266006,"Ashley Street, Wantirna, Melbourne, City of Knox, Victoria, 3152, Australia",,,,,,
"Unnamed (-38.1127, 145.1560)",-38.112741,145.155967,"Seaford Road, Seaford, Melbourne, City of Frankston, Victoria, 3198, Australia",,,,,,
"Unnamed (-38.1407, 145.1228)",-38.1406944,145.1227832,"Shell, Beach Street, Frankston, Melbourne, City of Frankston, Victoria, 3199, Australia",,,,,,
"Unnamed (-38.1655, 145.1377)",-38.1654554,145.1377187,"BP, 4, Golf Links Road, Frankston, Melbourne, City of Frankston, Victoria, 3199, Australia",,,,,,
"Unnamed (-38.1542, 145.1638)",-38.1541823,145.1637837,"7-Eleven, Cranbourne Road, Frankston, Melbourne, City of Frankston, Victoria, 3199, Australia",,,,,,
"Unnamed (-38.0966, 145.1759)",-38.09657,145.175944,"2, William Road, Carrum Downs, Melbourne, City of Frankston, Victoria, 3201, Australia",,,,,,
Clean Maker,-37.879855,145.2670552,"Clean Maker, 736, Burwood Highway, Ferntree Gully, Melbourne, City of Knox, Victoria, 3156, Australia",,,,,,
"Unnamed (-37.9875, 145.1142)",-37.9875445,145.1141774,"Lower Dandenong Road, Braeside, Melbourne, City of Kingston, Victoria, 3195, Australia",,,,,,
"Unnamed (-37.9898, 145.1408)",-37.9897765,145.1407817,"Shell, Centre Dandenong Road, Dingley Village, Melbourne, City of Kingston, Victoria, 3172, Australia",,,,,,
Car Wash,-38.0688284,145.1411461,"United, Thompson Road, Patterson Lakes, Melbourne, City of Kingston, Victoria, 3197, Australia",,,,,,
"Unnamed (-38.1462, 145.1364)",-38.1461544,145.1364272,"McMahons Road, Frankston, Melbourne, City of Frankston, Victoria, 3199, Australia",,,,,,
"Unnamed (-37.8522, 145.1517)",-37.8522066,145.1517425,"BP, Blackburn Road, Burwood East, Melbourne, City of Whitehorse, Victoria, 3151, Australia",,,,,,
"Unnamed (-37.8519, 145.1516)",-37.8518952,145.1515879,"Blackburn Road, Burwood East, Melbourne, City of Whitehorse, Victoria, 3151, Australia",,,,,,
"Unnamed (-37.9572, 145.0510)",-37.9571619,145.0509956,"Nepean Highway, Highett, Melbourne, City of Kingston, Victoria, 3192, Australia",,,,,,
"Unnamed (-37.7961, 144.7902)",-37.7960991,144.7902125,"Shell, The Avenue, Sunshine West, Melbourne, City of Brimbank, Victoria, 3020, Australia",,,,,,
"Unnamed (-38.1413, 145.1763)",-38.1412789,145.176282,"Duiker Court, Langwarrin, Melbourne, City of Frankston, Victoria, 3910, Australia",,,,,,
"Unnamed (-37.8277, 144.9575)",-37.8277076,144.9575053,"Blakeney Place, Southbank, Melbourne, City of Melbourne, Victoria, 3006, Australia",,,,,,
"Unnamed (-37.9078, 145.0746)",-37.9078421,145.0745613,"Poath Road, Hughesdale, Melbourne, City of Monash, Victoria, 3163, Australia",,,,,,
"Unnamed (-37.9864, 145.1463)",-37.9863981,145.1462865,"EG Australia, 747, Springvale Road, Keysborough, Melbourne, City of Greater Dandenong, Victoria, 3173, Australia",,,,,,
"Unnamed (-37.8261, 145.0000)",-37.826113,145.0000036,"Swan Street, Richmond, Melbourne, City of Yarra, Victoria, 3121, Australia",,,,,,
"Unnamed (-37.9031, 145.1621)",-37.9031305,145.1621377,"Ferntree Gully Road, Glen Waverley, Melbourne, City of Monash, Victoria, 3150, Australia",,,,,,
"Unnamed (-38.0837, 145.2948)",-38.0837456,145.2948179,"Alamanda Way, Cranbourne North, Melbourne, City of Casey, Victoria, 3977, Australia",,,,,,
Envirocare Car & Dog Wash Berwick,-38.0392803,145.3429551,"Envirocare Car & Dog Wash Berwick, 55, Clyde Road, Berwick, Melbourne, City of Casey, Victoria, 3806, Australia",,,,,,
"Unnamed (-37.7999, 145.2789)",-37.7998667,145.2788631,"Lusher Road, Croydon, Melbourne, City of Maroondah, Victoria, 3136, Australia",,,,,,
Softwash,-38.0303605,145.2811293,"Softwash, Shrives Road, Hampton Park, Melbourne, City of Casey, Victoria, 3976, Australia",,,,,,
"Unnamed (-37.7905, 145.1706)",-37.790523,145.1705971,"Tunstall Square, Doncaster East, Melbourne, City of Manningham, Victoria, 3109, Australia",,,,,,
Magic Hand Car Wash Heatmont,-37.8294276,145.2446605,"Magic Hand Car Wash Heatmont, Heathmont Rail Trail, Heathmont, Melbourne, City of Maroondah, Victoria, 3135, Australia",,,,,,
Magic Hand Car Wash,-37.8882131,145.2911255,"Magic Hand Car Wash, 1021, Burwood Highway, Ferntree Gully, Melbourne, City of Knox, Victoria, 3156, Australia",https://www.magichcw.com.au,,,Mo-Su 07:30-18:00,,
"Unnamed (-37.6864, 144.8832)",-37.686385,144.8832074,"Mickleham Road, Gladstone Park, Melbourne, City of Hume, Victoria, 3043, Australia",,,,,,
"Unnamed (-38.0024, 145.2458)",-38.0023969,145.2458187,"Olive Road, Eumemmerring, Melbourne, City of Casey, Victoria, 3177, Australia",,,,,,
Car Wash & Dog Wash,-37.9229395,145.0822132,"Car Wash & Dog Wash, Warrigal Road, Bentleigh East, Melbourne, City of Glen Eira, Victoria, 3165, Australia",,,,,,
IMO Car Wash,-37.9236674,145.0821401,"IMO Car Wash, Centre Road, Bentleigh East, Melbourne, City of Glen Eira, Victoria, 3165, Australia",,,,,,IMO Car Wash
"Unnamed (-37.8405, 145.2684)",-37.8405044,145.2683919,"Jim Abernethy Memorial Drive, Bayswater, Melbourne, City of Knox, Victoria, 3153, Australia",,,,,,
Wash N Go,-37.882118,145.2967696,"Wash N Go, 47, Forest Road, Ferntree Gully, Melbourne, City of Knox, Victoria, 3156, Australia",,,,,,
"Unnamed (-37.8319, 145.2688)",-37.8318979,145.2687527,"Bayswater Road, Bayswater North, Melbourne, City of Maroondah, Victoria, 3153, Australia",,,,,,
"Unnamed (-38.1945, 145.1493)",-38.1944701,145.1493342,"Ampol, Frankston-Flinders Road, Baxter, Melbourne, Shire of Mornington Peninsula, Victoria, 3911, Australia",,,,,,
Autowash,-37.7490878,144.7779057,"United, 283-285, Station Road, Albanvale, Melbourne, City of Brimbank, Victoria, 3021, Australia",,,,,,
Uwash,-37.7490036,144.7779422,"United, 283-285, Station Road, Albanvale, Melbourne, City of Brimbank, Victoria, 3021, Australia",,,,,,
"Unnamed (-37.8362, 145.1886)",-37.8361859,145.1885634,"Rooks Road, Vermont, Melbourne, City of Whitehorse, Victoria, 3133, Australia",,,,,,
Carwash and Kebabs,-38.1944943,145.1478371,"Carwash and Kebabs, Sages Road, Baxter, Melbourne, Shire of Mornington Peninsula, Victoria, 3911, Australia",,,,,,
"Unnamed (-37.8868, 144.7557)",-37.8868104,144.7556624,"BP, 144e-144f, Point Cook Road, Seabrook, Melbourne, City of Hobsons Bay, Victoria, 3028, Australia",,,,,,
"Unnamed (-37.8866, 144.7556)",-37.8865572,144.7556257,"BP, 144e-144f, Point Cook Road, Seabrook, Melbourne, City of Hobsons Bay, Victoria, 3028, Australia",,,,,,
AUZ Car Wash,-37.8981255,145.2323756,"AUZ Car Wash, 758, Stud Road, Scoresby, Melbourne, City of Knox, Victoria, 3179, Australia",,,,,,
"Unnamed (-38.1123, 145.1593)",-38.1123006,145.159321,"Ballarto Road, Carrum Downs, Melbourne, City of Frankston, Victoria, 3201, Australia",,,,,,
Carlovers,-37.9869295,145.1087283,"Carlovers, Lower Dandenong Road, Mordialloc, Melbourne, City of Kingston, Victoria, 3195, Australia",,,,,,
Shiners Jet Wash,-37.7439543,144.9943108,"504-506, Bell Street, Preston, Melbourne, City of Darebin, Victoria, 3072, Australia",,,,,,
Wash,-37.6967642,144.7756461,"Wash, Watergardens Circuit Road, Taylors Lakes, Melbourne, City of Brimbank, Victoria, 3038, Australia",,,,,,Wash
Sparkling Carwash,-37.8540467,145.1584627,"Sparkling Carwash, Syndal Heatherdale Pipe Reserve Trail, Burwood East, Melbourne, City of Whitehorse, Victoria, 3151, Australia",,,,,,
Magic Hand Car Wash,-37.8044611,144.9916112,"Magic Hand Car Wash, 2, Hood Street, Collingwood, Melbourne, City of Yarra, Victoria, 3066, Australia",http://www.mhcw.com.au/,,,,,
Bubbles Car Wash,-37.6852736,145.0126556,"Bubbles Car Wash, Newton Street, Thomastown, Melbourne, City of Whittlesea, Victoria, 3074, Australia",,,,,,
Detailers Depot Car Wash,-37.874982,144.7382752,"United, 1, Wallace Avenue, Point Cook, Melbourne, City of Wyndham, Victoria, 3030, Australia",,,,,,
"Unnamed (-37.8774, 144.7133)",-37.8774352,144.7133381,"Old Geelong Road, Hoppers Crossing, Melbourne, City of Wyndham, Victoria, 3029, Australia",,,,,,
Ezy Bay Wash,-37.9559666,145.0417556,"Ezy Bay Wash, Graham Road, Highett, Melbourne, City of Bayside, Victoria, 3190, Australia",,,,24/7,,
"Unnamed (-37.9908, 145.1490)",-37.9908023,145.1489969,"Carson Avenue, Keysborough, Melbourne, City of Greater Dandenong, Victoria, 3173, Australia",,,,,,
"Unnamed (28.0637, -80.6221)",28.063654,-80.6220793,"Florida Institute of Technology, South Babcock Street, Melbourne, Brevard County, Florida, 32901, United States",,,,,,
Magic Hand Carwash,-37.7021892,144.8011299,"Magic Hand Carwash, 1A, Melton Highway, Taylors Lakes, Melbourne, City of Brimbank, Victoria, 3038, Australia",http://www.mhcw.com.au/locations/?lst=3038,,,,,
Wash 'N' Vac,-37.7022492,145.0839387,"300, Grimshaw Street, Watsonia North, Melbourne, City of Banyule, Victoria, 3087, Australia",,,,,,
Car Wash,-37.7372152,145.0126804,"Select 7, Plenty Road, Preston, Melbourne, City of Darebin, Victoria, 3072, Australia",,,,,,
Magic Hand Carwash,-37.8096331,144.9501561,"Magic Hand Carwash, 438, Spencer Street, West Melbourne, Melbourne, City of Melbourne, Victoria, 3003, Australia",https://magichcw.com.au,,,,,
Wash 'n Glo,-38.1595149,145.1892757,"Wash 'n Glo, Warrandyte Road, Langwarrin, Melbourne, City of Frankston, Victoria, 3910, Australia",,,,Mo-Su 07:00-20:00,,
Clean Bay Car Wash,-37.7302911,144.9242885,"Clean Bay Car Wash, Pascoe Vale Road, Strathmore, Melbourne, City of Moonee Valley, Victoria, 3041, Australia",,,,,,
"Unnamed (-37.7304, 144.9246)",-37.7304394,144.9246397,"Moonee Ponds Creek Trail, Strathmore, Melbourne, City of Moonee Valley, Victoria, 3041, Australia",,,,,,
"Unnamed (-37.8122, 145.2412)",-37.8121692,145.2412064,"Mount Dandenong Road, Ringwood East, Melbourne, City of Maroondah, Victoria, 3135, Australia",,,,,,
Pressure Hose Wash,-38.0852258,145.2947334,"Pressure Hose Wash, Narre Warren Road, Cranbourne East, Melbourne, City of Casey, Victoria, 3977, Australia",,,,,,
"Unnamed (-37.6967, 144.7823)",-37.6967276,144.7822834,"Shell, Melton Highway, Taylors Lakes, Melbourne, City of Brimbank, Victoria, 3038, Australia",,,,,,
"Unnamed (-37.6977, 144.7800)",-37.6977422,144.7800491,"Watergardens Town Centre, 399, Melton Highway, Taylors Lakes, Melbourne, City of Brimbank, Victoria, 3038, Australia",,,,,,
"Unnamed (-37.8233, 144.8239)",-37.8232934,144.8239003,"2, Little Boundary Road, Laverton North, Melbourne, City of Wyndham, Victoria, 3026, Australia",,,,,,
"Unnamed (-37.8479, 144.6875)",-37.8478596,144.6875486,"Caltex Tarneit, 409, Derrimut Road, Tarneit, Melbourne, City of Wyndham, Victoria, 3029, Australia",,,,,,
"Unnamed (-37.7968, 145.1801)",-37.7967801,145.1801271,"Mitcham Road, Donvale, Melbourne, City of Manningham, Victoria, 3111, Australia",,,,,,
Car Wash,-37.7195492,145.0364436,"2, Browning Street, Kingsbury South Retail Precinct, Kingsbury, Melbourne, City of Darebin, Victoria, 3083, Australia",,,,,BP Kingsbury,
"Unnamed (-38.2329, 145.0397)",-38.2329244,145.0396813,"Nepean Highway, Mornington, Melbourne, Shire of Mornington Peninsula, Victoria, 3931, Australia",,,,,,
Carrum Laserwash,-38.1163578,145.1932304,"Shell, Ballarto Road, Carrum Downs, Melbourne, City of Frankston, Victoria, 3201, Australia",,,,,,
"Unnamed (-37.7022, 144.8010)",-37.7021986,144.8010435,"Melton Highway Service Road, Taylors Lakes, Melbourne, City of Brimbank, Victoria, 3038, Australia",,,,,,
Quick n Clean,-37.8338335,144.9491059,"Quick n Clean, 83, Crockford Street, Port Melbourne, Melbourne, City of Port Phillip, Victoria, 3207, Australia",,,,,,
"Unnamed (-37.6800, 145.1233)",-37.6800338,145.1232827,"Diamond Creek Road, Diamond Creek, Melbourne, Shire of Nillumbik, Victoria, 3089, Australia",,,,,,
Ezy Wash,-37.8824861,145.2747059,"Ezy Wash, 846, Burwood Highway, Ferntree Gully, Melbourne, City of Knox, Victoria, 3156, Australia",,,,,,
Magic Car Wash,-38.1470417,145.1363718,"Magic Car Wash, Cranbourne Road, Frankston, Melbourne, City of Frankston, Victoria, 3199, Australia",,,,,,
"Unnamed (-38.0024, 145.2458)",-38.0024125,145.245836,"Olive Road, Eumemmerring, Melbourne, City of Casey, Victoria, 3177, Australia",,,,,,
"Unnamed (-38.0021, 145.2733)",-38.0021448,145.2733461,"Frawley Road, Hallam, Melbourne, City of Casey, Victoria, 3803, Australia",,,,,,
"Unnamed (-37.7642, 145.1674)",-37.764228,145.167353,"Reynolds Road, Doncaster East, Melbourne, City of Manningham, Victoria, 3109, Australia",,,,,,
Coles Express,-37.78762,145.1195302,"Coles Express, Bayley Grove, Doncaster, Melbourne, City of Manningham, Victoria, 3108, Australia",,,,,,
Spray and Wash,-37.9285638,145.2657066,"Spray and Wash, 1201, Wellington Road, Lysterfield, Melbourne, City of Knox, Victoria, 3156, Australia",,,,,,
"Unnamed (-37.8178, 145.1622)",-37.8177575,145.1622246,"Linden Street, Blackburn, Melbourne, City of Whitehorse, Victoria, 3130, Australia",,,,,,
"Unnamed (-37.5808, 144.7263)",-37.5807825,144.7262631,"Station Street, Sunbury, Melbourne, City of Hume, Victoria, 3429, Australia",,,,,,
Soft Wash,-38.0362263,145.3054926,"7-Eleven, Cranbourne Road, Narre Warren, Melbourne, City of Casey, Victoria, 3805, Australia",,,,,,
Water Tunnel,-37.7520737,145.1355972,"Water Tunnel, Fitzsimons Lane, Templestowe, Melbourne, City of Manningham, Victoria, 3106, Australia",,,,,,
"Unnamed (-38.1130, 145.2855)",-38.1129753,145.2854855,"Sladen Street, Cranbourne, Melbourne, City of Casey, Victoria, 3977, Australia",,,,,,
"Unnamed (-37.5873, 145.1024)",-37.5872542,145.1023832,"Masons Road, Mernda, Melbourne, City of Whittlesea, Victoria, 3754, Australia",,,,,,
"Unnamed (-37.8830, 145.1097)",-37.8829657,145.1097319,"BP, Waverley Road, Mount Waverley, Melbourne, City of Monash, Victoria, 3149, Australia",,,,,,
Now Car Wash,-38.3509139,144.9233274,"Now Car Wash, Point Nepean Road, McCrae, Melbourne, Shire of Mornington Peninsula, Victoria, 3938, Australia",,,,,,
Enviro Green Car Wash,-37.7529754,145.3644531,"Enviro Green Car Wash, Maroondah Highway, Lilydale, Melbourne, Shire of Yarra Ranges, Victoria, 3140, Australia",,,,,Enviro Green,
"Unnamed (-37.7185, 145.0218)",-37.7185482,145.0218054,"Gisborne Crescent, Reservoir, Melbourne, City of Darebin, Victoria, 3073, Australia",,,,,,
Krystal Kleen Car Wash,-37.7422284,144.8637109,"66, Dinah Parade, Keilor East, Melbourne, City of Moonee Valley, Victoria, 3033, Australia",,,,,,
Kwik 'N' Kleen,-37.7604021,144.8608934,"Kwik 'N' Kleen, Military Road, Avondale Heights, Melbourne, City of Moonee Valley, Victoria, 3034, Australia",,,,,,
Cruise Car Spa,-38.0955565,145.2830588,"Cruise Car Spa, South Gippsland Highway Service Road, Cranbourne, Melbourne, City of Casey, Victoria, 3977, Australia",,,,,,
Wash 'N' Go,-38.0108403,145.2730817,"Wash 'N' Go, Hallam South Road, Hallam, Melbourne, City of Casey, Victoria, 3803, Australia",,,,24/7,,
Proshine Car Wash,-37.794404,145.2349729,"Proshine Car Wash, 179, Warrandyte Road, Ringwood North, Melbourne, City of Maroondah, Victoria, 3134, Australia",https://proshinecarwash.com.au/,,,Mo-Su 08:00-17:30,,
"Unnamed (-37.8773, 144.7110)",-37.8773211,144.7109757,"Nevada Court, Hoppers Crossing, Melbourne, City of Wyndham, Victoria, 3029, Australia",,,,,,
D-Lux Car Wash,-37.8208891,144.8823148,"D-Lux Car Wash, 321-325, Williamstown Road, Yarraville, Melbourne, City of Maribyrnong, Victoria, 3013, Australia",https://dluxwash.com.au/,,,Mo-Sa 08:00-17:00; Su 09:00-17:00,,
Go Green Car Wash,-37.8175123,144.8822563,"Go Green Car Wash, 290, Williamstown Road, Yarraville, Melbourne, City of Maribyrnong, Victoria, 3013, Australia",,,,24/7,,
"Unnamed (-38.0859, 145.4718)",-38.0859264,145.471757,"McGregor Road, Pakenham, Melbourne, Shire of Cardinia, Victoria, 3810, Australia",,,,,,
"Unnamed (-37.8965, 144.7511)",-37.8964892,144.751125,"Kirkstone Road, St Andrews, Point Cook, Melbourne, City of Wyndham, Victoria, 3030, Australia",,,,,,
Autocare Hand Car Wash,-37.8417208,144.8832776,"Autocare Hand Car Wash, Melbourne Road, Newport, Melbourne, City of Hobsons Bay, Victoria, 3015, Australia",,,,,,
"Unnamed (-37.8117, 144.8717)",-37.8117258,144.8717399,"Somerville Road, Kingsville, Melbourne, City of Maribyrnong, Victoria, 3012, Australia",,,,,,
Automatic Car Wash,-37.9452705,145.1538556,"Springvale Road, Springvale, Melbourne, City of Greater Dandenong, Victoria, 3171, Australia",,,,,,
"Unnamed (-37.9450, 145.1540)",-37.9450004,145.1539768,"Rosalie Street, Springvale, Melbourne, City of Greater Dandenong, Victoria, 3171, Australia",,,,,,
"Unnamed (-37.8491, 144.8449)",-37.8491403,144.8448524,"Millers Road, Altona North, Melbourne, City of Hobsons Bay, Victoria, 3025, Australia",,,,,,
Soakers,-37.711302,145.0081811,"Soakers, 939, High Street, Ruthven, Reservoir, Melbourne, City of Darebin, Victoria, 3073, Australia",,,,24/7,,
Prestige Hand Carwash,-37.7889387,144.9403156,"18-42, Racecourse Road, North Melbourne, Melbourne, City of Melbourne, Victoria, 3051, Australia",,,,,,
Auto Carwash,-37.6065744,145.1371519,"Auto Carwash, Yellow Brick Road, Doreen, Melbourne, City of Whittlesea, Victoria, 3754, Australia",,,,,,
Baywash Craigieburn,-37.5988898,144.9427654,"Baywash Craigieburn, Craigieburn Road, Craigieburn, Melbourne, City of Hume, Victoria, 3064, Australia",,,,,,
Art Detailing,-37.7581773,145.0010419,"Art Detailing, 700, High Street, Thornbury, Melbourne, City of Darebin, Victoria, 3071, Australia",,,,,,
Clearwater Carwash,-37.7615971,145.0003962,"Clearwater Carwash, 600, High Street, Thornbury, Melbourne, City of Darebin, Victoria, 3071, Australia",https://www.clearwatercarwash.com.au/,,,,,
"Unnamed (-37.9067, 145.3428)",-37.9066675,145.3427844,"Burwood Highway, Tecoma, Melbourne, Shire of Yarra Ranges, Victoria, 3160, Australia",,,,,,
Eco Wash,-37.7619865,145.312314,"Eco Wash, Fletcher Road, Chirnside Park, Melbourne, Shire of Yarra Ranges, Victoria, 3116, Australia",,,,24/7,,
"Unnamed (-37.8684, 145.0603)",-37.8683649,145.0602849,"1891-1899, Malvern Road, Malvern East, Melbourne, City of Stonnington, Victoria, 3145, Australia",,,,Mo-Su 07:00-22:00,,
Vacuum Bays,-38.0853619,145.2947075,"Vacuum Bays, Aleppo Place, Cranbourne, Melbourne, City of Casey, Victoria, 3977, Australia",,,,,,
"Unnamed (-37.8461, 145.2266)",-37.8460804,145.2265853,"Ashley Street, Wantirna, Melbourne, City of Knox, Victoria, 3152, Australia",,,,,,
"Unnamed (-37.6953, 145.0225)",-37.6952728,145.0224745,"Dalton Road, Keon Park, Thomastown, Melbourne, City of Whittlesea, Victoria, 3074, Australia",,,,,,
"Unnamed (-37.6951, 145.0224)",-37.695095,145.0224053,"St Georges Road Trail, Keon Park, Thomastown, Melbourne, City of Whittlesea, Victoria, 3074, Australia",,,,,,
"Unnamed (-37.6856, 144.9244)",-37.6855848,144.9243919,"382, Camp Road, Broadmeadows, Melbourne, City of Hume, Victoria, 3047, Australia",,,,,,
"Unnamed (-37.6922, 145.0264)",-37.6922406,145.0264307,"Thomastown Trash and Treasure Market, Thomastown, Melbourne, City of Whittlesea, Victoria, 3074, Australia",,,,,,
"Unnamed (-37.6446, 144.9302)",-37.6445958,144.9302418,"Pascoe Vale Road, Coolaroo, Melbourne, City of Hume, Victoria, 3048, Australia",,,,,,
"Unnamed (-37.9109, 145.2758)",-37.9108919,145.2758171,"Lakesfield Drive, Lakesfield, Lysterfield, Melbourne, City of Knox, Victoria, 3178, Australia",,,,,,
BP,-37.9138197,145.2132657,"Inbound EastLink Service Centre, Service Centre Offramp, Scoresby, Melbourne, City of Knox, Victoria, 3179, Australia",,,,,BP,BP
Magic Hand Car Wash,-38.0693305,145.2992252,"Casey Central, 400, Cranbourne Road, Narre Warren South, Melbourne, City of Casey, Victoria, 3805, Australia",,,,,Magic Hand Car Wash,Magic Hand Car Wash
Soft Wash,-37.661755,145.0539658,"7-Eleven, Morang Drive, Mill Park, Melbourne, City of Whittlesea, Victoria, 3032, Australia",,,,,,
Magic Hand Car Wash & Cafe,-37.8596553,145.0603706,"Magic Hand Car Wash & Cafe, High Street, Glen Iris, Melbourne, City of Stonnington, Victoria, 3146, Australia",,,,,,
"Unnamed (-37.8886, 145.0375)",-37.8885765,145.0374733,"1049, Glen Huntly Road, Caulfield, Melbourne, City of Glen Eira, Victoria, 3162, Australia",,,,,,
Car Wash,-37.7529663,145.0564377,"Car Wash, Thames Street, Heidelberg Heights, Melbourne, City of Banyule, Victoria, 3081, Australia",,,,,Dayef,
"Unnamed (-37.8908, 145.2999)",-37.8908149,145.2999312,"Ferny Creek Trail, Ferntree Gully, Melbourne, City of Knox, Victoria, 3156, Australia",,,,,,
Washed Camberwell,-37.8352733,145.0617871,"Washed Camberwell, Crescent Road, Camberwell, Melbourne, City of Boroondara, Victoria, 3124, Australia",,,,,,
"Unnamed (-37.8184, 145.3179)",-37.8184157,145.3178571,"Canterbury Road, Kilsyth, Melbourne, Shire of Yarra Ranges, Victoria, 3137, Australia",,,,,,
"Unnamed (-38.1325, 145.1253)",-38.1325456,145.1252703,"Ampol, Nepean Highway, Frankston, Melbourne, City of Frankston, Victoria, 3199, Australia",,,,,,
"Unnamed (-38.3602, 145.1971)",-38.360185,145.1971492,"Stony Point Road, Crib Point, Melbourne, Shire of Mornington Peninsula, Victoria, 3919, Australia",,,,,,
"Unnamed (-37.8284, 145.1215)",-37.8284134,145.1215275,"867-879, Canterbury Road, Box Hill South, Melbourne, City of Whitehorse, Victoria, 3128, Australia",,,,,,
Majestic 1 Car Wash,-37.6859915,144.599729,"Majestic 1 Car Wash, High Street, Melton, Melbourne, City of Melton, Victoria, 3337, Australia",,,,,,
"Unnamed (-37.8485, 145.0818)",-37.8484622,145.0817899,"Toorak Road, Camberwell, Melbourne, City of Boroondara, Victoria, 3124, Australia",,,,,,
Diamond Carwash,-37.6735772,145.1516396,"Diamond Street, Diamond Creek, Melbourne, Shire of Nillumbik, Victoria, 3089, Australia",,,,,,
Reservoir Car Wash & Detailing,-37.7112786,145.0079917,"Reservoir Car Wash & Detailing, 937, High Street, Ruthven, Reservoir, Melbourne, City of Darebin, Victoria, 3073, Australia",,,,,,
"Unnamed (-37.9433, 145.1171)",-37.9433308,145.1171481,"Osborne Avenue, Clayton South, Melbourne, City of Kingston, Victoria, 3169, Australia",,,,,,
Wash,-38.1101575,145.2633226,"Wash, Cranbourne-Frankston Road, Cranbourne West, Melbourne, City of Casey, Victoria, 3977, Australia",,,,,,Wash
"Unnamed (-37.9924, 145.1609)",-37.9923835,145.160894,"415-419, Cheltenham Road, Keysborough, Melbourne, City of Greater Dandenong, Victoria, 3173, Australia",,,,,,
Auto Wash,-38.0852574,145.2948717,"Auto Wash, Narre Warren Road, Cranbourne East, Melbourne, City of Casey, Victoria, 3977, Australia",,,,,,
Brilliant Car Wash,-37.7753245,145.0898387,"Brilliant Car Wash, Balwyn Road, Bulleen, Melbourne, City of Manningham, Victoria, 3105, Australia",,,,,,
Automatic Wash,-38.0954309,145.2830063,"Automatic Wash, South Gippsland Highway Service Road, Cranbourne, Melbourne, City of Casey, Victoria, 3977, Australia",,,,,,
"Unnamed (-38.1123, 145.2705)",-38.112285,145.2704641,"Cemetery Road, Cranbourne, Melbourne, City of Casey, Victoria, 3977, Australia",,,,,,
"Unnamed (-37.7993, 145.2839)",-37.7992797,145.2839303,"Mount Dandenong Road, Croydon, Melbourne, City of Maroondah, Victoria, 3136, Australia",,,,,,
Softwash,-37.8172339,145.1144984,"7-Eleven, 786, Whitehorse Road, Mont Albert, Melbourne, City of Whitehorse, Victoria, 3127, Australia",,,,,,
"Unnamed (-37.7995, 145.1596)",-37.7995205,145.1595665,"Barbor Place, Doncaster East, Melbourne, City of Manningham, Victoria, 3109, Australia",,,,,,
"Unnamed (-37.8348, 145.2701)",-37.8348233,145.270051,"Elmhurst Road, Bayswater North, Melbourne, City of Maroondah, Victoria, 3153, Australia",,,,,,
"Unnamed (-37.8681, 144.9863)",-37.8680572,144.9863362,"Blessington Street, St Kilda, Melbourne, City of Port Phillip, Victoria, 3182, Australia",,,,,,
Eco Wash,-37.7772361,145.4582276,"Eco Wash, Britton Road, Seville, Melbourne, Shire of Yarra Ranges, Victoria, 3139, Australia",,,,,,
"Unnamed (-37.7876, 145.1465)",-37.7875985,145.1464634,"BP, Doncaster East, Melbourne, City of Manningham, Victoria, 3109, Australia",,,,,,
Top Gear Car Wash,-37.8024143,145.3151015,"595, Mount Dandenong Road, Kilsyth, Melbourne, Shire of Yarra Ranges, Victoria, 3137, Australia",,,,,,
"Unnamed (-37.8114, 145.3368)",-37.8114072,145.3367829,"Mount Dandenong Road, Montrose, Melbourne, Shire of Yarra Ranges, Victoria, 3765, Australia",,,,,,
Fast Fuel Car Wash,-37.7857497,145.3826301,"Fast Fuel Car Wash, Hereford Road Service Road, Mount Evelyn, Melbourne, Shire of Yarra Ranges, Victoria, 3796, Australia",,,,,,
Splash N Dash Car Wash,-37.694035,144.7651621,"Splash N Dash Car Wash, 526, Melton Highway, Sydenham, Melbourne, City of Brimbank, Victoria, 3037, Australia",,,,,,
Carwash X-press,-37.7294371,144.7407596,"Carwash X-press, 6-7, Police Close, Caroline Springs, Melbourne, City of Melton, Victoria, 3023, Australia",,,,,,
Softwash,-37.9277673,145.2346258,"Softwash, Wellington Road Trail, Rowville, Melbourne, City of Knox, Victoria, 3178, Australia",,,,,,
Knox Car Wash & Detail,-37.8828326,145.2737093,"Knox Car Wash & Detail, 1857A, Ferntree Gully Road, Ferntree Gully, Melbourne, City of Knox, Victoria, 3156, Australia",,,,,,
"Unnamed (-37.6942, 144.7559)",-37.6941718,144.7558971,"Cynthia Court, Keilor Gateway, Hillside, Melbourne, City of Brimbank, Victoria, 3037, Australia",,,,,,
"Unnamed (-37.8880, 145.0285)",-37.8879802,145.0285215,"916-920, Glen Huntly Road, Caulfield South, Melbourne, City of Glen Eira, Victoria, 3162, Australia",,,,,,
"Unnamed (-37.6591, 145.0758)",-37.6590888,145.0758192,"Plenty Road, Mill Park, Melbourne, City of Whittlesea, Victoria, 3032, Australia",,,,,,
"Unnamed (-37.6591, 145.0758)",-37.6591397,145.0757631,"Plenty Road, Mill Park, Melbourne, City of Whittlesea, Victoria, 3032, Australia",,,,,,
We Wash U Shop,-38.3625665,144.8927468,"We Wash U Shop, Hope Street, Rosebud, Melbourne, Shire of Mornington Peninsula, Victoria, 3939, Australia",,,,,,
"Unnamed (-37.9186, 145.0420)",-37.9186435,145.0419685,"473A, Centre Road, Bentleigh, Melbourne, City of Glen Eira, Victoria, 3204, Australia",,,,,,
Coles Express Car Wash,-37.8999523,145.2340024,"Coles Express Car Wash, Stud Road Trail, Knoxfield, Melbourne, City of Knox, Victoria, 3180, Australia",,,,,,
Dirty Dog's Car Wash,28.0790736,-80.6219527,"Dirty Dog's Car Wash, New Haven Avenue, Melbourne, Brevard County, Florida, 32901, United States",,,,,,
Sparklers Car Wash,-37.8170744,145.1527388,"Sparklers Car Wash, 131, Whitehorse Road, Blackburn, Melbourne, City of Whitehorse, Victoria, 3130, Australia",,,,,,
Autobrite Car Wash,-37.788412,145.1583916,"Doncaster Road, Doncaster East, Melbourne, City of Manningham, Victoria, 3109, Australia",,,,24/7,Dodge Family Office,
"Unnamed (-37.8987, 145.2214)",-37.898694,145.2213954,"Cathies Lane, Scoresby, Melbourne, City of Knox, Victoria, 3179, Australia",,,,,,
Sparkle n Go,-37.758173,144.7910192,"Sparkle n Go, Cairnlea Drive, Cairnlea, Melbourne, City of Brimbank, Victoria, 3023, Australia",,,,,,
Werribee Carwash,-37.8962604,144.6388245,"Werribee Carwash, 100, Ballan Road, Werribee, Melbourne, City of Wyndham, Victoria, 3030, Australia",,,,,,
Get Washed,-37.7220047,144.9760633,"Get Washed, 201, Newlands Road, Coburg North, Melbourne, City of Merri-bek, Victoria, 3058, Australia",,,,24/7,,
"Unnamed (-37.7221, 144.9760)",-37.7221093,144.9759831,"Get Washed, 201, Newlands Road, Coburg North, Melbourne, City of Merri-bek, Victoria, 3058, Australia",,,,,,
"Unnamed (-37.7025, 144.5656)",-37.7025029,144.5656117,"Brooklyn Road, Melton South, Melbourne, City of Melton, Victoria, 3338, Australia",,,,,,
"Unnamed (-37.8824, 145.2748)",-37.8823539,145.2747634,"Burwood Highway, Ferntree Gully, Melbourne, City of Knox, Victoria, 3156, Australia",,,,,,
"Unnamed (-37.8825, 145.2747)",-37.8825296,145.274684,"Burwood Highway, Ferntree Gully, Melbourne, City of Knox, Victoria, 3156, Australia",,,,,,
BP,-37.8761486,145.2323486,"BP, Stud Road Trail, Wantirna South, Melbourne, City of Knox, Victoria, 3152, Australia",,,,,,BP
"Unnamed (-37.8764, 145.2220)",-37.8764355,145.2219961,"High Street Road, Wantirna South, Melbourne, City of Knox, Victoria, 3152, Australia",,,,,,
"Unnamed (-37.8763, 145.2221)",-37.8763084,145.2221275,"Bemboka Court, Wantirna South, Melbourne, City of Knox, Victoria, 3152, Australia",,,,,,
Elite Car Wash,-37.8683891,144.8285684,"Elite Car Wash, Blyth Street, Altona, Melbourne, City of Hobsons Bay, Victoria, 3018, Australia",,,,,,
"Unnamed (-37.9751, 145.2624)",-37.9750631,145.262421,"United, Heatherton Road, Endeavour Hills, Melbourne, City of Casey, Victoria, 3802, Australia",,,,,,
"Unnamed (-38.1030, 145.1965)",-38.1029696,145.1964529,"Hall Road, Carrum Downs, Melbourne, City of Frankston, Victoria, 3201, Australia",,,,,,
