Name,Address,Website,Plus-code,lat,lon
Ultimate Xpress,"121 West Terrace, Adelaide SA 5000, Australia ",http://www.ultimatexpress.com.au/,"3H9Q+J9 Adelaide, South Australia, Australia",-34.9309027,138.5884796
Aqua Hand Car Wash & Detailing,"22-26 Main N Rd, Prospect SA 5082, Australia ",http://www.aquacarwash.com.au/,"4J32+H2 Prospect, South Australia, Australia",-34.8960391,138.600118
Zippy's Carwash,"200 Main N Rd, Prospect SA 5082, Australia ",http://www.zippyscarwash.com.au/content/location,"4J92+9V Prospect, South Australia, Australia",-34.881504,138.602157
AUSWASH Car Wash and Detailing,"287 North East Road, Hampstead Gardens SA 5086, Australia ",https://auswash.com.au/,"4JGM+PJ Hampstead Gardens, South Australia, Australia",-34.8732275,138.6340716
Flufferz carwash,"273 North East Road, Hampstead Gardens SA 5086, Australia ",https://fluffercarwash.com.au/,"4JGM+94 Hampstead Gardens, South Australia, Australia",-34.8740291,138.6327742
CARWASH KING - Gilles Plains,"605 North East Road, Gilles Plains SA 5086, Australia ",http://www.carwashking.com.au/,"4MW5+2R Gilles Plains, South Australia, Australia",-34.8549348,138.6595212
Adelaide Mobile Detailing,"Rundle Mall, Adelaide SA 5000, Australia ",https://www.adelaidemobiledetailing.com/?utm_source=google&utm_medium=wix_google_business_profile&utm_campaign=8365517925256593918,"3JG3+V2 Adelaide, South Australia, Australia",-34.9228403,138.6025388
Bubbles car wash and cafe,"273 North East Road, Hampstead Gardens SA 5086, Australia ",http://www.bubblescarwashcafe.com.au/,"4JGM+C4 Hampstead Gardens, South Australia, Australia",-34.8739935,138.6327603
Paul's Car Wash,"183 Main N Rd, Nailsworth SA 5083, Australia ",http://www.paulscarwash.com.au/,"4J93+95 Nailsworth, South Australia, Australia",-34.8815021,138.6029911
HappyWash West Terrace,"41-49 West Terrace, Adelaide SA 5000, Australia ",https://www.otr.com.au/locations/adelaide-41-49-west-terrace/bp-west-terrace/,"3HFQ+Q6 Adelaide, South Australia, Australia",-34.9255838,138.5881224
Splash Car Wash & Detailing,"395 Glen Osmond Rd, Glen Osmond SA 5064, Australia ",https://www.splashcarwash.com.au/,"2JQV+87 Glen Osmond, South Australia, Australia",-34.9616733,138.6431589
Grand Junction Car Wash,"554 Main N Rd, Blair Athol SA 5084, Australia ",,"5H2X+6X Blair Athol, South Australia, Australia",-34.8494942,138.5999018
G'Zox Adelaide,"52-56 Byron Pl, Adelaide SA 5000, Australia ",http://www.gzox.com/english,"3HCR+JV Adelaide, South Australia, Australia",-34.9284649,138.5921597
Speed Car Wash,"400 Churchill Rd, Kilburn SA 5084, Australia ",,"4HMM+98 Kilburn, South Australia, Australia",-34.8665524,138.5832713
CARWASH KING - Glynde,"410 Payneham Rd, Glynde SA 5070, Australia ",http://www.carwashking.com.au/,"4J4X+Q8 Glynde, South Australia, Australia",-34.8930576,138.6483089
WoWo Washing,"181 Anzac Hwy, Kurralta Park SA 5037, Australia ",https://wowowashing.com/,"2HV7+2C Kurralta Park, South Australia, Australia",-34.9574364,138.5635685
CARWASH KING - Frewville,"231 Glen Osmond Rd, Frewville SA 5063, Australia ",http://www.carwashking.com.au/,"3J2J+77 Frewville, South Australia, Australia",-34.9492536,138.6306829
Shine Car Spa,"286 Fullarton Rd, Fullarton SA 5063, Australia ",https://shinecarspa.com.au/,"3J2G+M6 Fullarton, South Australia, Australia",-34.9482911,138.6255364
Big Bucket Car Wash,"LOT 13 Lawrence Hargrave Way, Parafield SA 5106, Australia ",http://www.bigbucketcarwash.com.au/,"6J5W+62 Parafield, South Australia, Australia",-34.7919682,138.6450804
Smiley Car Wash Clarence Gardens,"877 South Rd, Clarence Gardens SA 5039, Australia ",https://smileycarwash.com.au/,"2HGF+MF Clarence Gardens, South Australia, Australia",-34.9733296,138.5737157
Wash on Grange,"138 Grange Rd, Flinders Park SA 5025, Australia ",http://www.washongrange.com.au/,"3HW3+56 Flinders Park, South Australia, Australia",-34.9045736,138.5530857
The Wash Glenelg,"Rooftop/22 Gordon St, Glenelg SA 5045, Australia ",http://www.thewash.com.au/,"2GC9+HV Glenelg, South Australia, Australia",-34.9785174,138.5197318
HappyWash Pultney Street,"281/305 Pulteney St, Adelaide SA 5000, Australia ",https://www.otr.com.au/locations/adelaide-139-angas-st-pulteney-st/otr-adelaide/,"3J94+V6 Adelaide, South Australia, Australia",-34.9302938,138.6056148
Crystal Shine Hand Car Wash & Detailing,"400 Churchill Rd, Kilburn SA 5084, Australia ",http://www.crystalshinecarwash.com.au/,"4HMM+C8 Kilburn, South Australia, Australia",-34.8664203,138.5832904
The Stables Car & Motorbike Detailing Adelaide,"101 Morphett Rd, Morphettville SA 5043, Australia ",https://thestables.au/,"2G8Q+RF Morphettville, South Australia, Australia",-34.9828984,138.5386639
Happy Wash South Plympton,"501-503 Marion Rd, South Plympton SA 5038, Australia ",https://www.otr.com.au/locations/south-plympton--503-marion-road/south-plympton-drive-thru/,"2HG4+P8 South Plympton, South Australia, Australia",-34.9732152,138.5557656
The Quick Carwash,"1145 North East Road, Ridgehaven SA 5097, Australia ",,"5PG5+GV Ridgehaven, South Australia, Australia",-34.8236878,138.7096335
Best Wash And Detailing,"388 Main N Rd, Blair Athol SA 5084, Australia ",,,-34.8630748,138.600825
In N Out Car Wash,"31 Grassmere Rd, Prospect SA 5082, Australia ",https://innoutcarwash.com.au/,,-34.8742234,138.600873
Five Star Mobile Detailing,"337 Whites road 264 main n rd prospect, Paralowie SA 5108, Australia ",http://fivestarmobiledetailing.com.au/,,-34.8099387,138.615716
Port Car Wash,"242 Port Rd, Alberton SA 5014, Australia ",,"4GW6+93 Alberton, South Australia, Australia",-34.854119,138.5101754
Next Level Detailing,"6 Nelson St, Stepney SA 5069, Australia ",https://nextleveldetailing.com.au/,"3JPJ+59 Stepney, South Australia, Australia",-34.9146243,138.6309998
Time2Shine Hand Car Wash,"460-470 Torrens Rd, Kilkenny SA 5009, Australia ",http://www.time2shine.net.au/,"4GFX+MW Kilkenny, South Australia, Australia",-34.8757556,138.5497573
Pro Wash,"Golden Grove SA 5125, Australia ",,"6M5R+5G Golden Grove, South Australia, Australia",-34.7920187,138.6912651
Brickworks Hand Car Wash & Detailing,"Unit 6/2 Ashwin Parade, Torrensville SA 5031, Australia ",https://www.facebook.com/touchnglowcarwash/,"3HP6+QR Torrensville, South Australia, Australia",-34.9130201,138.5620748
Detailing Adelaide,"Unit 5/47-49 Elizabeth St, Norwood SA 5067, Australia ",https://www.detailingadelaide.com.au/,"3JFH+HR Norwood, South Australia, Australia",-34.9260261,138.6295026
Mr Sparkle Auto Detailing,"3/79 Exeter Terrace, Dudley Park SA 5008, Australia ",https://www.facebook.com/Mrsparklecardetailing/,"4H9M+72 Dudley Park, South Australia, Australia",-34.8818471,138.5825744
Extreme Auto Detailing,"44 Adrian St, Ingle Farm SA 5098, Australia ",,"5MF2+36 Ingle Farm, South Australia, Australia",-34.8273099,138.6505551
Wash & Shine Hand Carwash & Detailing,"Shopping Centre, Walkleys Rd, Ingle Farm SA 5098, Australia ",,"5JCW+JM Ingle Farm, South Australia, Australia",-34.8284124,138.6467266
Tom's Car Wash,"151 Sir Donald Bradman Dr, Hilton SA 5033, Australia ",https://www.facebook.com/Toms-Carwash-155929124476116/,"3H97+38 Hilton, South Australia, Australia",-34.9323518,138.5632848
HappyWash Clarence Park,"338/346 Goodwood Rd, Clarence Park SA 5034, Australia ",https://www.otr.com.au/happywash-car-wash/,"2HMR+M5 Clarence Park, South Australia, Australia",-34.9658039,138.5903864
First Choice Cleaning SA,"194B Marion Rd, West Richmond SA 5033, Australia ",,"3H53+23 West Richmond, South Australia, Australia",-34.9424786,138.5527298
Star Car Wash - Westfield Westlakes,"Undercover Car Park, Westfield Westlakes, Pad 3/111 W Lakes Blvd, West Lakes SA 5021, Australia ",https://www.starcarwash.com.au/centres/westlakes/?utm_source=google&utm_medium=organic&utm_campaign=gmb-listing,"4FCR+MW West Lakes, South Australia, Australia",-34.878337,138.4923549
Mobile Car Wash Adelaide,"Unit 5/47-49 Elizabeth St, Norwood SA 5067, Australia ",https://mobilecarwashadelaide.com.au/,"3JFH+HR Norwood, South Australia, Australia",-34.9260261,138.6295026
Pitstop carwash richmond,"191 Richmond Rd, Richmond SA 5033, Australia ",,"3H57+33 Richmond, South Australia, Australia",-34.9422527,138.5626451
Star Car Wash - Westfield Tea Tree,"976 North East Road, Modbury SA 5092, Australia ",https://www.starcarwash.com.au/centres/tea-tree/?utm_source=google&utm_medium=organic&utm_campaign=gmb-listing,"5M9Q+2J Modbury, South Australia, Australia",-34.8324013,138.6890888
Clean Getaway Car Wash,"365 Grange Rd, Findon SA 5023, Australia ",,"3GVH+R4 Findon, South Australia, Australia",-34.905414,138.5278414
HappyWash Evandale,"87/91 Portrush Rd, Evandale SA 5069, Australia ",https://www.otr.com.au/happywash-car-wash/,"3JWQ+8M Evandale, South Australia, Australia",-34.904163,138.6391824
HappyWash Kensington,"294 The Parade, Kensington SA 5068, Australia ",https://www.otr.com.au/locations/kensington-294-the-parade/bp-kensington/,"3JHV+H8 Kensington, South Australia, Australia",-34.9210975,138.643345
Elite Car Detailers,"11 Rosemary St, Woodville West SA 5011, Australia ",https://www.elitecardetailers.com.au/,"4G7H+MG Woodville West, South Australia, Australia",-34.8857868,138.528844
HappyWash Unley,"17 King William Rd, Hyde Park SA 5061, Australia ",https://www.otr.com.au/locations/unley-17-king-william-road/bp-hyde-park/,"3J42+Q4 Hyde Park, South Australia, Australia",-34.9430013,138.6002593
Pitstop Hand Carwash,"294 Marion Rd, Netley SA 5037, Australia ",,"2HX3+99 Netley, South Australia, Australia",-34.9516199,138.5534094
Adelaide Automotive Detailing,"16 O'Brien St, Adelaide SA 5000, Australia ",http://adelaideautomotivedetailing.com.au/,"3H8Q+9R Adelaide, South Australia, Australia",-34.9340383,138.5896132
GMC Detailing,"9 Amber Ave, Clearview SA 5085, Australia ",https://www.gmcd.com.au/services/,"5J26+J6 Clearview, South Australia, Australia",-34.8484512,138.6105758
Happy Wash Wayville,"51 Goodwood Rd, Wayville SA 5034, Australia ",https://www.otr.com.au/locations/wayville-51-goodwood-road/bp-wayville/,"3H3R+C4 Wayville, South Australia, Australia",-34.9464784,138.590264
HappyWash Torrensville,"253 Henley Beach Rd, Torrensville SA 5031, Australia ",https://www.otr.com.au/happywash-car-wash/,"3HG3+35 Torrensville, South Australia, Australia",-34.9248291,138.55298
HappyWash Woodville Park,"81 David Terrace, Woodville Park SA 5011, Australia ",https://www.otr.com.au/locations/woodville-park--81-david-tce/bp-woodville-park/,"4G9X+GR Woodville Park, South Australia, Australia",-34.8811701,138.54962
Reflections Car Detail,"1A Halifax St, Hilton SA 5033, Australia ",https://reflectionscardetail.com.au/,"3H97+9V Hilton, South Australia, Australia",-34.9315875,138.5647383
Premium Shine Detailing,"Unit 6/113 Welland Ave, Welland SA 5007, Australia ",,"3HR5+5X Welland, South Australia, Australia",-34.9095215,138.5599686
HappyWash Flinders Park,"148 Grange Rd, Flinders Park SA 5025, Australia ",https://www.otr.com.au/happywash-car-wash/,"3HW2+2H Flinders Park, South Australia, Australia",-34.9049159,138.551442
HappyWash Modbury,"927 North East Road, Modbury SA 5092, Australia ",https://www.otr.com.au/happywash-car-wash/,"5M8J+5G Modbury, South Australia, Australia",-34.8345536,138.6813413
Happy Wash Plympton,"279 Anzac Hwy, Plympton SA 5038, Australia ",https://www.otr.com.au/happywash-car-wash,"2HP4+M3 Plympton, South Australia, Australia",-34.9633276,138.5551339
Fine Automotive Detailing,"42 Moss Ave, Marleston SA 5033, Australia ",https://fineautomotivedetailing.com.au/,"3H37+38 Marleston, South Australia, Australia",-34.9472706,138.5633295
HappyWash Hillcrest,"431-435 North East Road, Hillcrest SA 5086, Australia ",https://www.otr.com.au/locations/hillcrest-431-north-east-road/bp-hillcrest/,"4JPW+43 Hillcrest, South Australia, Australia",-34.8647206,138.6451899
Nestie Detailing,"16 Goldsborough Rd, Cavan SA 5094, Australia ",https://www.nestiedetailing.com.au/,"5J92+6C Cavan, South Australia, Australia",-34.8319186,138.6010739
Car Adelaide Auto Electrician,"Windsor Gardens SA 5087, Australia ",,"4JMV+9F Windsor Gardens, South Australia, Australia",-34.8665279,138.6437444
Crystal Hand Car Wash,"47 Glynburn Rd, Glynde SA 5070, Australia ",http://crystalhandcarwash.com.au/,"4M44+8H Glynde, South Australia, Australia",-34.8941503,138.6564728
Happy Wash Ridleyton,"241 South Rd, Ridleyton SA 5008, Australia ",https://www.otr.com.au/locations/ridleyton-233-south-road/bp-croydon/,"4H6C+24 Ridleyton, South Australia, Australia",-34.8899393,138.5703431
HappyWash Tranmere,"172-176 Glynburn Rd, Tranmere SA 5073, Australia ",https://www.otr.com.au/happywash-car-wash/,"3MX5+24 Tranmere, South Australia, Australia",-34.9024794,138.6578646
Happy Wash Woodville West,"938-942 Port Rd, Woodville West SA 5011, Australia ",https://www.otr.com.au/locations/woodville-west-938---942-port-road/bp-woodville-west/,"4GFH+3J Woodville West, South Australia, Australia",-34.877335,138.5291053
HappyWash Hilton,"81 Sir Donald Bradman Dr, Hilton SA 5033, Australia ",http://www.ontherun.com.au/locations/hilton-79-81-sir-donald-bradman-dve/bp-hilton/,"3H99+2P Hilton, South Australia, Australia",-34.9324922,138.5692845
HappyWash Angle Park,"610/612 South Rd, Angle Park SA 5010, Australia ",https://www.otr.com.au/happywash-car-wash/,"4HV7+HP Angle Park, South Australia, Australia",-34.8560646,138.5643646
HappyWash Glandore,"134/136A Anzac Hwy, Kurralta Park SA 5037, Australia ",https://www.otr.com.au/locations/glandore--130-136-anzac-highway/on-the-run-glandore/,"2HV9+VG Kurralta Park, South Australia, Australia",-34.9553153,138.5687669
Classic Clean Auto Electrician Adelaide,"428 Main N Rd, Blair Athol SA 5084, Australia ",,"4JR2+46 Blair Athol, South Australia, Australia",-34.8596485,138.6005885
Adelaide car wash,"859 South Rd, Clarence Gardens SA 5039, Australia ",,"2HHF+4F Clarence Gardens, South Australia, Australia",-34.9721834,138.5737271
Pitstop Car Wash Campbelltown,"602 Lower North East Rd, Campbelltown SA 5074, Australia ",,"4MC7+45 Campbelltown, South Australia, Australia",-34.8796768,138.662918
Pepper's Truck Wash,"553 Grand Jct Rd, Wingfield SA 5013, Australia ",http://www.lavertontruckwash.net.au/,"5H2C+J5 Wingfield, South Australia, Australia",-34.8484063,138.570473
Atomic Detailing Adelaide,"Unit 6/11-13 Bremen Dr, Salisbury South SA 5106, Australia ",https://www.atomicdetailingadelaide.com.au/,"6J8P+QH Salisbury South, South Australia, Australia",-34.783119,138.6364776
Laserwash,"140 Grange Rd, Flinders Park SA 5025, Australia ",,"3HW3+56 Flinders Park, South Australia, Australia",-34.9045681,138.5531085
HappyWash Rosewater,"125 Grand Jct Rd, Rosewater SA 5013, Australia ",https://www.otr.com.au/locations/rosewater-125-grand-junction-road/bp-roseville/,"4GXF+FQ Rosewater, South Australia, Australia",-34.8513708,138.524428
HappyWash Kilburn,"427-433 Churchill Rd, Kilburn SA 5084, Australia ",https://www.otr.com.au/locations/kilburn-427-churchill-rd/bp-kilburn/,"4HRM+49 Kilburn, South Australia, Australia",-34.859687,138.5834396
HappyWash Pooraka,"126 Bridge Rd, Pooraka SA 5095, Australia ",https://www.otr.com.au/locations/pooraka-126-bridge-road/bp-pooraka/,"5JCJ+PQ Pooraka, South Australia, Australia",-34.8281669,138.6319122
HappyWash Mawson Lakes,"14 Capital St, Mawson Lakes SA 5095, Australia ",https://www.otr.com.au/locations/mawson-lakes-7-9-central-link/otr-mawson-lakes/,"5JV7+WV Mawson Lakes, South Australia, Australia",-34.8051433,138.6147499
Car wash,"48 Merchant Cres, Pooraka SA 5095, Australia ",,"5J86+J3 Pooraka, South Australia, Australia",-34.8334968,138.6101554
HappyWash Athelstone,"310 Gorge Rd, Athelstone SA 5076, Australia ",https://www.otr.com.au/happywash-car-wash/,"4PH2+85 Athelstone, South Australia, Australia",-34.8717417,138.7004209
HappyWash Newton,"72 Gorge Rd, Newton SA 5074, Australia ",https://www.otr.com.au/locations/newton-72-gorge-road/bp-newton/,"4MFF+9F Newton, South Australia, Australia",-34.8766188,138.6736565
Precise Auto Detailing,"Unit 2/9 Aroha Terrace, Black Forest SA 5035, Australia ",,"2HVH+WX Black Forest, South Australia, Australia",-34.955154,138.5799633
Goody's Car Wash,"1086 South Rd, Edwardstown SA 5039, Australia ",https://www.goodyscarwash.au/,"2H5F+RQ Edwardstown, South Australia, Australia",-34.9903793,138.5744628
Mad Coupe Ceramic Coating | Paint Protection | Window Tinting Services in Adelaide,"Unit 4/1413 Main N Rd, Para Hills West SA 5096, Australia ",https://madcoupe.com.au/,"6J3V+CX Para Hills West, South Australia, Australia",-34.7963805,138.64488
PB 32 Pro Paint Protection Adelaide,"979 Port Rd, Cheltenham SA 5014, Australia ",,"4GJ9+4V Cheltenham, South Australia, Australia",-34.8697068,138.5197457
bp,"41-49 West Terrace, Adelaide SA 5000, Australia ",https://map.bp.com/en-AU/AU/gas-station/adelaide/bp-otr-west-terrace/3171,"3HFQ+V5 Adelaide, South Australia, Australia",-34.9253,138.5879
Supreme Car Detailing Adelaide,"Research Rd, Pooraka SA 5095, Australia ",https://www.facebook.com/profile.php?id=100091862346691&mibextid=LQQJ4d,"5JMM+JR Pooraka, South Australia, Australia",-34.8159301,138.6345377
Car Wash,"Fulham Gardens SA 5024, Australia ",,"3GM7+R8 Fulham Gardens, South Australia, Australia",-34.9153877,138.51337
SHINE TRUCK & CAR MOBILE WASH,"15 Bayer Ave, Dudley Park SA 5008, Australia ",,"4HFH+P5 Dudley Park, South Australia, Australia",-34.8757405,138.5779942
Platinum detailers,"Unit 3/8c McGowan St, Pooraka SA 5095, Australia ",,"5JJP+CJ Pooraka, South Australia, Australia",-34.818932,138.636611
GetNeat Mobile Car Wash,"95 Ross St, Forest Lodge NSW 2037, Australia ",https://getneat.com.au/,"45CH+9W Forest Lodge, New South Wales, Australia",-33.8790726,151.1797793
Xpert Carwash,"Undercover Car Park, Tramsheds Shopping Mall, 1 Dalgal Wy, Forest Lodge NSW 2037, Australia ",https://xpertcarwash.com.au/,"45FH+C2 Forest Lodge, New South Wales, Australia",-33.8763771,151.1775503
Star Car Wash - Norton Street Plaza,"Norton Plaza, 55 Norton St, Leichhardt NSW 2040, Australia ",https://www.starcarwash.com.au/centres/leichhardt/?utm_source=google&utm_medium=organic&utm_campaign=gmb-listing,"4575+JC Leichhardt, New South Wales, Australia",-33.8859147,151.1585587
Inner West Detailing,"Enter Justin St Lane, Way/30 Halloran St, Lilyfield NSW 2040, Australia ",http://iwdetailing.com.au/,"45H8+43 Lilyfield, New South Wales, Australia",-33.8722001,151.1651839
mycar Tyre & Auto Annandale,"Shell Coles Express Service Station, 124-126 Johnston St, Annandale NSW 2038, Australia ",https://www.mycar.com.au/stores/nsw/ce-annandale?utm_source=google-business-profile&utm_medium=organic&utm_campaign=gbp-website&utm_content=ce-annandale,"459C+M6 Annandale, New South Wales, Australia",-33.8808411,151.1705125
Shell Reddy Express Annandale,"124-126 Johnston St, Annandale NSW 2038, Australia ",https://www.reddyexpress.com.au/stores?utm_source=gmb&utm_medium=yext&utm_campaign=1616,"459C+M6 Annandale, New South Wales, Australia",-33.8808098,151.1705259
Pham's Laundrette,"18 Booth St, Annandale NSW 2038, Australia ",https://phamslaundretteannandale.squarespace.com/,"459F+27 Annandale, New South Wales, Australia",-33.8824836,151.1731752
Shire Shine Car Wash & Café,"66/68 Captain Cook Dr, Caringbah NSW 2229, Australia ",,"X48F+VH Caringbah, New South Wales, Australia",-34.0328077,151.12389
Diamond Shine Car Wash,"206-208 Bonds Rd, Riverwood NSW 2210, Australia ",https://www.facebook.com/DiamondRiverwood/,"3336+G3 Riverwood, New South Wales, Australia",-33.9461892,151.0601322
Shell,"124-126 Johnston St, Annandale NSW 2038, Australia ",https://find.shell.com/au/fuel/10110732-shell-reddy-express-annandale/en_AU,"459C+J7 Annandale, New South Wales, Australia",-33.8808922,151.1706306
Paw Stars Annandale,"1A The Crescent, Annandale NSW 2038, Australia ",https://www.pawstars.com.au/,"45FG+H9 Annandale, New South Wales, Australia",-33.876116,151.175978
The Tumble Club,"132/134 Parramatta Rd, Camperdown NSW 2050, Australia ",https://tumble.club/,"457H+C3 Camperdown, New South Wales, Australia",-33.8863853,151.1777064
Star Car Wash - Headquarter Office,"Unit 43/34 – 36 Ralph St, Alexandria NSW 2015, Australia ",https://www.starcarwash.com.au/,"35JW+GV Alexandria, New South Wales, Australia",-33.9186866,151.1972141
Dr. Car Wash & Detailing,"320 Parramatta Rd, Burwood NSW 2134, Australia ",http://drcarwash.com.au/,"44J4+7Q Burwood, New South Wales, Australia",-33.8693351,151.106903
World Square Xtream Hand Car Wash & Detailing,"World Square Shopping Centre, Car Park, Level P6/644 George St, Sydney NSW 2000, Australia ",https://www.xtreamcarwash.com.au/,"46C4+VC Sydney, New South Wales, Australia",-33.8777691,151.2060571
Budget Car Wash Mascot,"1041 Botany Rd, Mascot NSW 2020, Australia ",,"35FW+76 Mascot, New South Wales, Australia",-33.9268461,151.1955926
Summit Hand Car Wash & Detailing Centre Drummoyne,"Cnr Westbourne &, Hythe St, Drummoyne NSW 2047, Australia ",https://www.summitcarwash.com.au/drummoyne,"5522+WG Drummoyne, New South Wales, Australia",-33.8477086,151.1512969
Goat Detailer,"11/13-15 Burrows Rd S, St Peters NSW 2044, Australia ",http://www.goatdetailer.com.au/,"35HG+CV St Peters, New South Wales, Australia",-33.9214029,151.1771355
Uncle Car Wash,"Leichhardt marketplace basement car park, Leichhardt NSW 2040, Australia ",,"448X+2F Leichhardt, New South Wales, Australia",-33.8849789,151.1486889
Star Car Wash - Alexandria Homemaker Centre,"Alexandria Homemaker Centre, Under Spotlight Sign, 49-59 O'Riordan St, Alexandria NSW 2015, Australia ",https://www.starcarwash.com.au/centres/alexandria/,"35PV+GM Alexandria, New South Wales, Australia",-33.9137229,151.1942367
House of wax Carwash and detailing,"315 Parramatta Rd, Haberfield NSW 2045, Australia ",,"44GH+3C Haberfield, New South Wales, Australia",-33.8748362,151.1285375
We Care Auto Wash,"6511 Braddock Rd, Alexandria, VA 22312, United States ",,"RRCP+6H Alexandria, Virginia, USA",38.8205875,-77.1635303
Lane Cove Xtream Hand Car Wash & Detailing,"36 Longueville Rd, Lane Cove NSW 2066, Australia ",https://letsbook.shop/ni/store/jacks-prestige-carwash,"55PC+XW Lane Cove, New South Wales, Australia",-33.8125152,151.1722878
Rainbow Hand Car Wash & Cafe Drummoyne,"120 Victoria Rd, Drummoyne NSW 2047, Australia ",http://rainbowcarwashcafe.com/,"45W4+JR Drummoyne, New South Wales, Australia",-33.8533764,151.1571127
GOLDEN TOUCH HAND CAR WASH,"49 Queens Rd, Five Dock NSW 2046, Australia ",,"44HC+WX Five Dock, New South Wales, Australia",-33.8701364,151.1224249
IMO Car Wash,"15 Ross Smith Ave, Mascot NSW 2020, Australia ",https://www.imocarwash.com/au/car-washes/mascot-new-south-wales/sydney-airport-car-wash/?y_source=1_MTIyNzE1NDUtNzE1LWxvY2F0aW9uLndlYnNpdGU%3D,"358R+QF Mascot, New South Wales, Australia",-33.9330723,151.1911591
Car Wash Cafe,"Haberfield NSW 2045, Australia ",,"44GH+38 Haberfield, New South Wales, Australia",-33.8747947,151.1283746
Concierge Car Wash Crows Nest,"448 Pacific Hwy, Crows Nest NSW 2065, Australia ",https://conciergecarwash.com.au/,"55GX+24 Crows Nest, New South Wales, Australia",-33.8249579,151.1977692
Fast Sale Car Detailing Sydney,"Suite 3, Level 27 Governor Macquarie Tower, 1 Farrer Pl, Sydney NSW 2000, Australia ",https://www.fastsaledetailing.com.au/,"46P6+8G Sydney, New South Wales, Australia",-33.8641591,151.2113333
Star Car Wash - Summer Hill,"4A Parramatta Rd, Summer Hill NSW 2130, Australia ",https://www.starcarwash.com.au/centres/summer-hill/?utm_source=Google-Local&utm_medium=organic&utm_campaign=local-seo,"446V+5J Summer Hill, New South Wales, Australia",-33.8895006,151.1440719
Eco Steam Wash,"1 Barangaroo Ave, Barangaroo NSW 2000, Australia ",http://ecosteamwash.com.au/,"46P2+XF Barangaroo, New South Wales, Australia",-33.8625568,151.2012023
Wax Car Wash,"375 Cleveland St, Redfern NSW 2016, Australia ",https://www.waxcarwash.com.au/,"4656+CF Redfern, New South Wales, Australia",-33.8914701,151.2112472
Unique Carwash-Artarmon,"CP, Artarmon Home HQ, 1/1 Frederick St, Artarmon NSW 2064, Australia ",,"55MQ+5G Artarmon, New South Wales, Australia",-33.8170454,151.1888301
levendis mobile carwash & detailing,"66 Frogmore St, Mascot NSW 2020, Australia ",,"358X+F9 Mascot, New South Wales, Australia",-33.9338149,151.1984741
Premier carwash RNSH,"P2/1 Reserve Rd, St Leonards NSW 2065, Australia ",http://www.premiercarwash.com.au/,"55HR+65 St Leonards, New South Wales, Australia",-33.8219359,151.1904265
Glosshaus,"Unit 41/566 Gardeners Rd, Alexandria NSW 2015, Australia ",http://www.glosshaus.com.au/,"35JM+4V Alexandria, New South Wales, Australia",-33.9196608,151.1846757
Pros Mobile Mechanic Sydney Carwash,"Glebe NSW 2037, Australia ",,"458V+FH Glebe, New South Wales, Australia",-33.8837862,151.1938764
We Wash 'em,"10 Hay St, Haymarket NSW 2000, Australia ",,"46C2+CJ Haymarket, New South Wales, Australia",-33.8789912,151.2015044
Pro Detailing Sydney,"260 Great N Rd, Wareemba NSW 2046, Australia ",https://www.prodetailing.com.au/,"44RJ+RC Wareemba, New South Wales, Australia",-33.8579338,151.1311161
SPARK WASH,"1408, Blocks Valley NSW 2060, Australia ",http://washwithspark.com/,"5654+WW North Sydney, New South Wales, Australia",-33.8401473,151.20733
Platinum Car Wash and Detailing Services,"2 Quay St, Haymarket NSW 2000, Australia ",,"4693+W7 Haymarket, New South Wales, Australia",-33.8801676,151.2032232
Lane Cove Carwash,"109 Tambourine Bay Rd, Lane Cove NSW 2066, Australia ",http://www.lanecovecarwash.com/,"55G6+66 Lane Cove, New South Wales, Australia",-33.8244388,151.1605406
Paddington Auto Detailing,"56-58 Sutherland St, Paddington NSW 2021, Australia ",http://paddingtonautodetailing.com/?utm_source=google&utm_medium=wix_google_business_profile&utm_campaign=6827969449349459480,"468M+X8 Paddington, New South Wales, Australia",-33.8825717,151.2333705
Park on King Car Wash,"338 King St, Mascot NSW 2020, Australia ",https://www.parkonking.com.au/,"35CP+67 Mascot, New South Wales, Australia",-33.9294123,151.1856578
Anna Bay car wash,"4136 Nelson Bay Rd, Anna Bay NSW 2316, Australia ",,"63J2+59 Anna Bay, New South Wales, Australia",-32.7695889,152.0508901
Star Car Wash - Entertainment Quarter,"Star Car Wash, Entertainment Quarter, 116/122 Lang Rd, Moore Park NSW 2021, Australia ",https://www.starcarwash.com.au/centres/entertainment-quarter-2/?utm_source=google&utm_medium=organic&utm_campaign=gmb-appt,"463G+W4 Moore Park, New South Wales, Australia",-33.8952187,151.2253479
WOW Wash Mobile Car Wash & Detailing,"15 Blue St, North Sydney NSW 2060, Australia ",http://wowwashmobilecardetailing.com.au/,"5654+FX North Sydney, New South Wales, Australia",-33.8412663,151.207498
Car Wash Kingdom,"412-416 Liverpool Rd, Croydon NSW 2132, Australia ",,"4468+J6 Croydon, New South Wales, Australia",-33.8883772,151.1155666
Southpoint Carwash & Detailing Hillsdale,"238-262 Bunnerong Rd, Hillsdale NSW 2036, Australia ",,"26XJ+6C Hillsdale, New South Wales, Australia",-33.9519798,151.231009
Pro Detailing,"2/240 Parramatta Rd, Burwood NSW 2134, Australia ",,"44J5+2X Burwood, New South Wales, Australia",-33.8699233,151.1098925
CARSPA Autowash Cafe,"2/1190 Old Windsor Rd, Parklea NSW 2768, Australia ",http://www.carspa.com.au/,"7WGQ+5J Parklea, New South Wales, Australia",-33.7245828,150.9390951
Belmore Car Wash,"607 Canterbury Rd, Belmore NSW 2192, Australia ",http://belmorecarwash.com/,"33HW+99 Belmore, New South Wales, Australia",-33.9215043,151.0959274
Snap Car Wash Crows Nest,"P2 Coles Under Ground Car Park, 101-110 Willoughby Rd, Crows Nest NSW 2065, Australia ",https://snapcarwash.com.au/,"56G2+MC Crows Nest, New South Wales, Australia",-33.8232642,151.201122
Advanced carwash,"184 Liverpool Rd, Enfield NSW 2136, Australia ",,"437X+44 Enfield, New South Wales, Australia",-33.887232,151.0977821
SKL Hand Car Wash,"100 Burwood Rd, Burwood NSW 2134, Australia ",,"44G4+6X Burwood, New South Wales, Australia",-33.8744002,151.1074403
Luxe Car Detailing,"4 Glenmore St, Naremburn NSW 2065, Australia ",,"55JX+MQ Naremburn, New South Wales, Australia",-33.8183394,151.1994758
Star Car Wash - Sydney QVB,"QVB, 455 George St, Sydney NSW 2000, Australia ",https://www.starcarwash.com.au/centres/qvb-cbd/?utm_source=google&utm_medium=organic&utm_campaign=gmb-listing,"46H4+5M Sydney, New South Wales, Australia",-33.8721139,151.206738
Star Car Wash - Ashfield Mall,"Entry via Knox or, Ashfield Mall, Car Park, Level 1/260A Liverpool Rd, Ashfield NSW 2131, Australia ",https://www.starcarwash.com.au/centres/ashfield/?utm_source=google&utm_medium=organic&utm_campaign=gmb-listing,"446F+98 Ashfield, New South Wales, Australia",-33.8890655,151.1233143
Softwash,"25 Parramatta Rd, Haberfield NSW 2045, Australia ",,"446V+Q6 Haberfield, New South Wales, Australia",-33.8880555,151.1430151
Crystal Car Wash Northbridge,"75 Sailors Bay Rd, Northbridge NSW 2063, Australia ",http://crystalcarwash.com/,"56Q5+W3 Northbridge, New South Wales, Australia",-33.8101596,151.2077034
Crystal Car Wash Edgecliff,"67 New South Head Rd, Edgecliff NSW 2021, Australia ",http://www.crystalcarwash.com/,"46FJ+6G Edgecliff, New South Wales, Australia",-33.8769513,151.2312987
GM Car Wash,"Seventh St, Mascot NSW 2020, Australia ",,"357M+V8 Mascot, New South Wales, Australia",-33.9353371,151.1833229
getneat Mobile Car Wash North Shore,"2 Spruson St, Neutral Bay NSW 2089, Australia ",https://getneat.com.au/,"5668+97 Neutral Bay, New South Wales, Australia",-33.8390645,151.2157286
Premium Mobile Mechanic Sydney Wash,"Burwood NSW 2134, Australia ",,"44G4+48 Burwood, New South Wales, Australia",-33.8747158,151.1058013
Ultimate Detail,"78 Church St, Ashfield NSW 2131, Australia ",http://www.ultimatedetaill.com/,"44FF+5H Ashfield, New South Wales, Australia",-33.8770748,151.1239583
Laurinda car detailing pty ltd,"10 Lilian Fowler Pl, Marrickville NSW 2204, Australia ",http://www.laurindacardetailing.com.au/,"35R9+79 Marrickville, New South Wales, Australia",-33.909328,151.16848
Car Alchemist,"2/98 Joynton Ave, Zetland NSW 2017, Australia ",http://www.caralchemist.com/,"36W6+G4 Zetland, New South Wales, Australia",-33.9037457,151.2102584
Nara Wash n Shine Hurstville,"309A Forest Rd, Hurstville NSW 2220, Australia ",http://www.narawashnshine.com.au/,"23MX+RQ Hurstville, New South Wales, Australia",-33.9654197,151.0994992
GOLDEN TOUCH MOBILE HAND CAR WASH,"40 Queens Rd, Five Dock NSW 2046, Australia ",https://mazhhedge.com.au/,"44HG+XJ Five Dock, New South Wales, Australia",-33.8700274,151.1265524
Star Car Wash - Grosvenor Place,"7 Essex St, The Rocks NSW 2000, Australia ",http://starcarwash.com.au/,"46Q4+5M The Rocks, New South Wales, Australia",-33.8620999,151.2066839
Polish Perfection Detailing,"42C Formosa St, Drummoyne NSW 2047, Australia ",https://www.polishperfectiondetailing.com.au/,"45W4+5R Drummoyne, New South Wales, Australia",-33.8545155,151.1571061
Concierge Car Wash - Westfield Eastgardens,"152 Bunnerong Rd, Eastgardens NSW 2036, Australia ",http://www.conciergecarwash.com.au/,"363F+Q7 Eastgardens, New South Wales, Australia",-33.9455446,151.2231984
Fine Shine Ceramic Coating,"Shop T66 2, 4 Defries Ave, Zetland NSW 2017, Australia ",https://ceramiccoating.sydney/,"36V7+V6 Zetland, New South Wales, Australia",-33.9052704,151.2130888
Inch-Care Car Detailing,"100 Collins St, Alexandria NSW 2015, Australia ",http://www.inchcare.com.au/,"35QW+M8 Alexandria, New South Wales, Australia",-33.9108014,151.1957797
JK Car Wash,"53 Shaftesbury Rd, Burwood NSW 2134, Australia ",,"44F4+CR Burwood, New South Wales, Australia",-33.8764183,151.10708
Detailing dale,"Mullens St, Balmain NSW 2039, Australia ",,"45QG+2H Balmain, New South Wales, Australia",-33.8624932,151.176389
Route 66 Hand Car Wash,"102 Marrickville Rd, Marrickville NSW 2204, Australia ",,"35P7+84 Marrickville, New South Wales, Australia",-33.9142064,151.1627959
Car Spa,"235 O'Riordan St, Mascot NSW 2020, Australia ",,"35CP+4H Mascot, New South Wales, Australia",-33.9297293,151.1864318
Ecospray Car Wash Cafe,"214 Warringah Rd, Beacon Hill NSW 2100, Australia ",https://ecospraycarwash.com.au/,"67W3+XX Beacon Hill, New South Wales, Australia",-33.7525722,151.2549098
Washtec BP Naremburn,"169 Willoughby Rd, Naremburn NSW 2065, Australia ",,"56J2+2F Naremburn, New South Wales, Australia",-33.819879,151.2011943
Car is here,"95 Lennox St, Newtown NSW 2042, Australia ",,"453G+FM Newtown, New South Wales, Australia",-33.8962907,151.1767181
IMO Car Wash,"2 Raintree Way, Mount Annan NSW 2567, Australia ",https://www.imocarwash.com/au/car-washes/mt-annan-new-south-wales/mt-annan-car-wash/?y_source=1_MTIyNzE3NDMtNzE1LWxvY2F0aW9uLndlYnNpdGU%3D,"XQ24+GC Mount Annan, New South Wales, Australia",-34.0487202,150.7560156
Rejuvenate Detailing,"Wardell Rd, Dulwich Hill NSW 2203, Australia ",https://www.rejuvenatedetailing.com/,"34PQ+95 Dulwich Hill, New South Wales, Australia",-33.9140642,151.137895
Earlwood Car Wash,"200 Homer St, Earlwood NSW 2206, Australia ",,"34FH+49 Earlwood, New South Wales, Australia",-33.9272205,151.1283906
Star Car Wash - Westfield Eastgardens,"Westfield Eastgardens Shopping Centre, Green Level Car Park, Enter Wentworth Ave, 152 Bunnerong Rd, Eastgardens NSW 2036, Australia ",https://www.starcarwash.com.au/centres/eastgardens/?utm_source=google&utm_medium=organic&utm_campaign=gmb-listing,"364F+3P Eastgardens, New South Wales, Australia",-33.9448257,151.2243293
Platinum Carwash & Detailing Services - Darling Park,"201 Sussex St, Sydney NSW 2000, Australia ",,"46H3+5H Sydney, New South Wales, Australia",-33.8720761,151.2038774
Clean Motive,"1/12 Clarendon St, Artarmon NSW 2064, Australia ",,"55MM+CH Artarmon, New South Wales, Australia",-33.8164816,151.1839315
BBG Auto Detailing & Pressure Washing,"6003 Riddle Walk, Alexandria, VA 22312, United States ",http://www.bbusinessgroup.com/,"RV97+4R Alexandria, Virginia, USA",38.8177858,-77.1354272
Five Dock Hand Car Wash,"315 Parramatta Rd, Haberfield NSW 2045, Australia ",,"44GH+48 Haberfield, New South Wales, Australia",-33.8747024,151.1283111
White Diamond Hand Car Wash,"273-277 Parramatta Rd, Haberfield NSW 2045, Australia ",http://www.diamondwash.com.au/,"44GH+3H Haberfield, New South Wales, Australia",-33.8747742,151.1288807
POLY WASH,"718-722 Parramatta Rd, Croydon NSW 2132, Australia ",https://www.polywash.com.au/,"44H9+FX Croydon, New South Wales, Australia",-33.8713202,151.1199643
Crystal Car Wash Café,"95 Ramsay St, Haberfield NSW 2045, Australia ",https://crystalcarwash.com/locations/haberfield-nsw/,"449R+84 Haberfield, New South Wales, Australia",-33.8816557,151.1402838
Prime Hand Car Wash,"212-214 Parramatta Rd, Auburn NSW 2144, Australia ",http://www.primecarwash.com.au/,"525M+FX Auburn, New South Wales, Australia",-33.8412835,151.0349475
10 Auburn Carwash,"Queen St &, Harrow Rd, Auburn NSW 2144, Australia ",,"42XJ+JP Auburn, New South Wales, Australia",-33.8509521,151.0317866
5 Star Nepalese Hand Car Wash and Detailing,"54 Parramatta Rd, Clyde NSW 2142, Australia ",https://www.facebook.com/5starhand-carwas,"5289+J4 Clyde, New South Wales, Australia",-33.8333935,151.0177601
Guildford Hand Car Wash,"2 Rawson Rd, Guildford NSW 2142, Australia ",,"42P5+GG Guildford, New South Wales, Australia",-33.8636255,151.0088382
Sydney Car Spa,"101 Hector St, Sefton NSW 2162, Australia ",https://www.sydneycarspa.com.au/,"4284+CV Sefton, New South Wales, Australia",-33.883908,151.007148
Lime Car Wash,"360 Park Rd, Regents Park NSW 2143, Australia ",https://limecarwash.com/,"42CF+9W Regents Park, New South Wales, Australia",-33.8790087,151.0248032
V8 Car Wash & Cafe,"90 Parramatta Rd, Lidcombe NSW 2141, Australia ",https://www.facebook.com/V8-carwash-cafe-lidcombe-260037904699840/,"5322+56 Lidcombe, New South Wales, Australia",-33.8496208,151.0505981
Queen Car Wash,"17/21 Woodville Rd, Granville NSW 2142, Australia ",,"5293+RP Granville, New South Wales, Australia",-33.8304991,151.004317
Star Car Wash - Lidcombe Shopping Centre,"Lidcombe Shopping Centre, 92 Parramatta Rd, Lidcombe NSW 2141, Australia ",https://www.starcarwash.com.au/centres/lidcombe/?utm_source=google&utm_medium=organic&utm_campaign=gmb-listing,"522X+CF Lidcombe, New South Wales, Australia",-33.8489364,151.0486946
EN ROUTE | DETAILING | PAINT CORRECTION | CERAMIC COATING | TINTING,"133 Sheffield St, Auburn NSW 2144, Australia ",https://www.by-enroute.com.au/,"5238+RW Auburn, New South Wales, Australia",-33.8454549,151.0172537
Sydney Superior Details,"31 Tooth Ave, Newington NSW 2127, Australia ",https://www.sydneysuperiordetails.com/,"5342+X6 Newington, New South Wales, Australia",-33.8425812,151.0506182
KINGZ CARWASH,"36 Church St, Parramatta NSW 2150, Australia ",,"52G3+WX Parramatta, New South Wales, Australia",-33.8226952,151.004878
Autosalon d'Elegance,"36 Percy St, Auburn NSW 2144, Australia ",http://www.autosalondelegance.com.au/,"42XQ+F8 Auburn, New South Wales, Australia",-33.8513444,151.0382635
