Name,Address,Website,Plus-code,lat,lon
Zippy's Carwash,"200 Main N Rd, Prospect SA 5082, Australia ",http://www.zippyscarwash.com.au/content/location,"4J92+9V Prospect, South Australia, Australia",-34.881504,138.602157
CARWASH KING - Gilles Plains,"605 North East Road, Gilles Plains SA 5086, Australia ",http://www.carwashking.com.au/,"4MW5+2R Gilles Plains, South Australia, Australia",-34.8549348,138.6595212
Grand Junction Car Wash,"554 Main N Rd, Blair Athol SA 5084, Australia ",,"5H2X+6X Blair Athol, South Australia, Australia",-34.8494942,138.5999018
Aqua Hand Car Wash & Detailing,"22-26 Main N Rd, Prospect SA 5082, Australia ",http://www.aquacarwash.com.au/,"4J32+H2 Prospect, South Australia, Australia",-34.8960391,138.600118
CARWASH KING - Frewville,"231 Glen Osmond Rd, Frewville SA 5063, Australia ",http://www.carwashking.com.au/,"3J2J+77 Frewville, South Australia, Australia",-34.9492536,138.6306829
Big Bucket Car Wash,"LOT 13 Lawrence Hargrave Way, Parafield SA 5106, Australia ",http://www.bigbucketcarwash.com.au/,"6J5W+62 Parafield, South Australia, Australia",-34.7919682,138.6450804
Ultimate Xpress,"121 West Terrace, Adelaide SA 5000, Australia ",http://www.ultimatexpress.com.au/,"3H9Q+J9 Adelaide, South Australia, Australia",-34.9309027,138.5884796
Smiley Car Wash Clarence Gardens,"877 South Rd, Clarence Gardens SA 5039, Australia ",https://smileycarwash.com.au/,"2HGF+MF Clarence Gardens, South Australia, Australia",-34.9733296,138.5737157
Smiley Car Wash Somerton Park,"242 Brighton Rd, Somerton Park SA 5044, Australia ",https://smileycarwash.com.au/somerton/,"2G2C+GQ Somerton Park, South Australia, Australia",-34.9987334,138.5219789
Port Car Wash,"242 Port Rd, Alberton SA 5014, Australia ",,"4GW6+93 Alberton, South Australia, Australia",-34.854119,138.5101754
Elizabeth Car Wash,"50 Elizabeth Way Shop CP001, Elizabeth SA 5112, Australia ",,"7MM9+XW Elizabeth, South Australia, Australia",-34.7150822,138.6698689
Flufferz carwash,"273 North East Road, Hampstead Gardens SA 5086, Australia ",https://fluffercarwash.com.au/,"4JGM+94 Hampstead Gardens, South Australia, Australia",-34.8740291,138.6327742
West Hand Car Wash & Detailing - Harbour Town,"Harbour Town Shopping Centre, 727 Tapleys Hill Rd, Adelaide Airport SA 5950, Australia ",https://waveshcw.com.au/,"3G39+JC Adelaide Airport, South Australia, Australia",-34.945951,138.5185681
Bubbles car wash and cafe,"273 North East Road, Hampstead Gardens SA 5086, Australia ",http://www.bubblescarwashcafe.com.au/,,-34.8739935,138.6327603
AUSWASH Car Wash and Detailing,"287 North East Road, Hampstead Gardens SA 5086, Australia ",https://auswash.com.au/,"4JGM+PJ Hampstead Gardens, South Australia, Australia",-34.8732275,138.6340716
Paul's Car Wash,"183 Main N Rd, Nailsworth SA 5083, Australia ",http://www.paulscarwash.com.au/,"4J93+95 Nailsworth, South Australia, Australia",-34.8815021,138.6029911
Adelaide Mobile Detailing,"Rundle Mall, Adelaide SA 5000, Australia ",https://www.adelaidemobiledetailing.com/?utm_source=google&utm_medium=wix_google_business_profile&utm_campaign=8365517925256593918,"3JG3+V2 Adelaide, South Australia, Australia",-34.9228403,138.6025388
Happy Wash South Plympton,"501-503 Marion Rd, South Plympton SA 5038, Australia ",https://www.otr.com.au/locations/south-plympton--503-marion-road/south-plympton-drive-thru/,"2HG4+P8 South Plympton, South Australia, Australia",-34.9732152,138.5557656
KD Auto Detailing Adelaide - Ceramic Coating Specialist - Paint Protection & Window Tint,"Gilles Plains SA 5086, Australia ",https://www.kdautodetailingadelaide.com.au/,,-34.8460203,138.6659542
Splash Car Wash & Detailing,"395 Glen Osmond Rd, Glen Osmond SA 5064, Australia ",https://www.splashcarwash.com.au/,,-34.9616733,138.6431589
Elizabeth Car Wash,"50 Elizabeth Way Shop CP001, Elizabeth SA 5112, Australia ",,"7MM9+XW Elizabeth, South Australia, Australia",-34.7150822,138.6698689
Shine Car Spa,"286 Fullarton Rd, Fullarton SA 5063, Australia ",https://shinecarspa.com.au/,,-34.9482911,138.6255364
The Wash,"255 Unley Rd, Malvern SA 5061, Australia ",http://www.thewash.com.au/,"2JV5+97 Malvern, South Australia, Australia",-34.9565276,138.6081748
ULTIMATE XPRESS,"Unit 2/114 Magill Rd, Norwood SA 5067, Australia ",https://www.ultimatexpress.com.au/,"3JMJ+P7 Norwood, South Australia, Australia",-34.915673,138.6306547
Cargroomers Magill/Adelaide Hills,"21a Davies Ave, Tranmere SA 5073, Australia ",https://www.cargroomersmagillhills.com.au/?utm_source=gmb&utm_medium=referral,"4M27+V8 Tranmere, South Australia, Australia",-34.8978135,138.6633086
WoWo Washing,"181 Anzac Hwy, Kurralta Park SA 5037, Australia ",https://wowowashing.com/,"2HV7+2C Kurralta Park, South Australia, Australia",-34.9574364,138.5635685
HappyWash Clarence Park,"338/346 Goodwood Rd, Clarence Park SA 5034, Australia ",https://www.otr.com.au/happywash-car-wash/,"2HMR+M5 Clarence Park, South Australia, Australia",-34.9658039,138.5903864
Wash on Grange,"138 Grange Rd, Flinders Park SA 5025, Australia ",http://www.washongrange.com.au/,"3HW3+56 Flinders Park, South Australia, Australia",-34.9045736,138.5530857
CARWASH KING - Glynde,"410 Payneham Rd, Glynde SA 5070, Australia ",http://www.carwashking.com.au/,"4J4X+Q8 Glynde, South Australia, Australia",-34.8930576,138.6483089
Speed Car Wash,"400 Churchill Rd, Kilburn SA 5084, Australia ",,"4HMM+98 Kilburn, South Australia, Australia",-34.8665524,138.5832713
The Wash Glenelg,"Rooftop/22 Gordon St, Glenelg SA 5045, Australia ",http://www.thewash.com.au/,"2GC9+HV Glenelg, South Australia, Australia",-34.9785174,138.5197318
Goody's Car Wash,"1086 South Rd, Edwardstown SA 5039, Australia ",https://www.goodyscarwash.au/,"2H5F+RQ Edwardstown, South Australia, Australia",-34.9903793,138.5744628
The Stables Car & Motorbike Detailing Adelaide,"101 Morphett Rd, Morphettville SA 5043, Australia ",https://thestables.au/,"2G8Q+RF Morphettville, South Australia, Australia",-34.9828984,138.5386639
AAVC ADELAIDE,"11 High St, South Brighton SA 5048, Australia ",http://www.automotiveartistry.com.au/,"XGFG+2M South Brighton, South Australia, Australia",-35.0274269,138.5267284
Elite Car Detailers,"11 Rosemary St, Woodville West SA 5011, Australia ",https://www.elitecardetailers.com.au/,"4G7H+MG Woodville West, South Australia, Australia",-34.8857868,138.528844
Adelaide Car Detailing Experts,"58 Australian Ave, Clovelly Park SA 5042, Australia ",http://adelaidecardetailingexperts.com.au/,"2H29+C9 Clovelly Park, South Australia, Australia",-34.9988967,138.5684842
KD Auto Detailing Adelaide - Ceramic Coating Specialist - Paint Protection & Window Tint,"Gilles Plains SA 5086, Australia ",https://www.kdautodetailingadelaide.com.au/,"5M38+H9 Gilles Plains, South Australia, Australia",-34.8460203,138.6659542
HappyWash Pultney Street,"281/305 Pulteney St, Adelaide SA 5000, Australia ",https://www.otr.com.au/locations/adelaide-139-angas-st-pulteney-st/otr-adelaide/,"3J94+V6 Adelaide, South Australia, Australia",-34.9302938,138.6056148
Next Level Detailing,"6 Nelson St, Stepney SA 5069, Australia ",https://nextleveldetailing.com.au/,"3JPJ+59 Stepney, South Australia, Australia",-34.9146243,138.6309998
Munno Para Car Wash,"600 Main N Rd, Smithfield SA 5114, Australia ",,"8M7R+47 Smithfield, South Australia, Australia",-34.6871834,138.6906391
HappyWash West Beach,"89 Military Rd, West Beach SA 5024, Australia ",https://www.otr.com.au/locations/west-beach-89-military-road/bp-west-beach/,"3G72+2H West Beach, South Australia, Australia",-34.9373926,138.5014159
In N Out Car Wash,"31 Grassmere Rd, Prospect SA 5082, Australia ",https://innoutcarwash.com.au/,"4JG2+88 Prospect, South Australia, Australia",-34.8742234,138.600873
Best Wash And Detailing,"388 Main N Rd, Blair Athol SA 5084, Australia ",,"4JP2+Q8 Blair Athol, South Australia, Australia",-34.8630748,138.600825
Five Star Mobile Detailing,"337 Whites road 264 main n rd prospect, Paralowie SA 5108, Australia ",http://fivestarmobiledetailing.com.au/,"5JR8+27 Paralowie, South Australia, Australia",-34.8099387,138.615716
The Quick Carwash,"1145 North East Road, Ridgehaven SA 5097, Australia ",,"5PG5+GV Ridgehaven, South Australia, Australia",-34.8236878,138.7096335
HappyWash Woodville Park,"81 David Terrace, Woodville Park SA 5011, Australia ",https://www.otr.com.au/locations/woodville-park--81-david-tce/bp-woodville-park/,"4G9X+GR Woodville Park, South Australia, Australia",-34.8811701,138.54962
Detailing Adelaide,"Unit 5/47-49 Elizabeth St, Norwood SA 5067, Australia ",https://www.detailingadelaide.com.au/,"3JFH+HR Norwood, South Australia, Australia",-34.9260261,138.6295026
Time2Shine Hand Car Wash,"460-470 Torrens Rd, Kilkenny SA 5009, Australia ",http://www.time2shine.net.au/,"4GFX+MW Kilkenny, South Australia, Australia",-34.8757556,138.5497573
Star Car Wash - Westfield Marion,"Westfield, 297 Diagonal Rd, Oaklands Park SA 5046, Australia ",https://www.starcarwash.com.au/centres/westfield-marion/?utm_source=google&utm_medium=organic&utm_campaign=gmb-listing,"XGMW+2Q Oaklands Park, South Australia, Australia",-35.0173972,138.5469616
Reflections Car Detail,"1A Halifax St, Hilton SA 5033, Australia ",https://reflectionscardetail.com.au/,"3H97+9V Hilton, South Australia, Australia",-34.9315875,138.5647383
Pro Wash,"Golden Grove SA 5125, Australia ",,"6M5R+5G Golden Grove, South Australia, Australia",-34.7920187,138.6912651
Brickworks Hand Car Wash & Detailing,"Unit 6/2 Ashwin Parade, Torrensville SA 5031, Australia ",https://www.facebook.com/touchnglowcarwash/,"3HP6+QR Torrensville, South Australia, Australia",-34.9130201,138.5620748
HappyWash Flinders Park,"148 Grange Rd, Flinders Park SA 5025, Australia ",https://www.otr.com.au/happywash-car-wash/,"3HW2+2H Flinders Park, South Australia, Australia",-34.9049159,138.551442
HappyWash Modbury,"927 North East Road, Modbury SA 5092, Australia ",https://www.otr.com.au/happywash-car-wash/,"5M8J+5G Modbury, South Australia, Australia",-34.8345536,138.6813413
Happy Wash Plympton,"279 Anzac Hwy, Plympton SA 5038, Australia ",https://www.otr.com.au/happywash-car-wash,"2HP4+M3 Plympton, South Australia, Australia",-34.9633276,138.5551339
Extreme Auto Detailing,"44 Adrian St, Ingle Farm SA 5098, Australia ",,"5MF2+36 Ingle Farm, South Australia, Australia",-34.8273099,138.6505551
HappyWash Broadview,"150 Hampstead Rd, Broadview SA 5083, Australia ",https://www.otr.com.au/happywash-car-wash/,"4JJ9+JC Broadview, South Australia, Australia",-34.8684551,138.6185876
Car Adelaide Auto Electrician,"Windsor Gardens SA 5087, Australia ",,"4JMV+9F Windsor Gardens, South Australia, Australia",-34.8665279,138.6437444
Wash & Shine Hand Carwash & Detailing,"Shopping Centre, Walkleys Rd, Ingle Farm SA 5098, Australia ",,"5JCW+JM Ingle Farm, South Australia, Australia",-34.8284124,138.6467266
Crystal Hand Car Wash,"47 Glynburn Rd, Glynde SA 5070, Australia ",http://crystalhandcarwash.com.au/,"4M44+8H Glynde, South Australia, Australia",-34.8941503,138.6564728
Happy Wash Ridleyton,"241 South Rd, Ridleyton SA 5008, Australia ",https://www.otr.com.au/locations/ridleyton-233-south-road/bp-croydon/,"4H6C+24 Ridleyton, South Australia, Australia",-34.8899393,138.5703431
Star Car Wash - Westfield Westlakes,"Undercover Car Park, Westfield Westlakes, Pad 3/111 W Lakes Blvd, West Lakes SA 5021, Australia ",https://www.starcarwash.com.au/centres/westlakes/?utm_source=google&utm_medium=organic&utm_campaign=gmb-listing,"4FCR+MW West Lakes, South Australia, Australia",-34.878337,138.4923549
HappyWash Munno Para West,"248 Curtis Rd, Smithfield Plains SA 5114, Australia ",https://www.otr.com.au/locations/munno-para-west-248-curtis-rd-/otr-curtis-road/,"8MHJ+3G Smithfield Plains, South Australia, Australia",-34.6722837,138.6813541
HappyWash Tranmere,"172-176 Glynburn Rd, Tranmere SA 5073, Australia ",https://www.otr.com.au/happywash-car-wash/,"3MX5+24 Tranmere, South Australia, Australia",-34.9024794,138.6578646
Happy Wash Woodville West,"938-942 Port Rd, Woodville West SA 5011, Australia ",https://www.otr.com.au/locations/woodville-west-938---942-port-road/bp-woodville-west/,"4GFH+3J Woodville West, South Australia, Australia",-34.877335,138.5291053
YenroAuto Mobile Car Detailing,"21A Kent Ave, Seacombe Gardens SA 5047, Australia ",https://yenroauto.com.au/,"XGFX+6R Seacombe Gardens, South Australia, Australia",-35.0269046,138.54953
Tom's Car Wash,"151 Sir Donald Bradman Dr, Hilton SA 5033, Australia ",https://www.facebook.com/Toms-Carwash-155929124476116/,"3H97+38 Hilton, South Australia, Australia",-34.9323518,138.5632848
Star Car Wash - Westfield Tea Tree,"976 North East Road, Modbury SA 5092, Australia ",https://www.starcarwash.com.au/centres/tea-tree/?utm_source=google&utm_medium=organic&utm_campaign=gmb-listing,"5M9Q+2J Modbury, South Australia, Australia",-34.8324013,138.6890888
Pitstop carwash richmond,"191 Richmond Rd, Richmond SA 5033, Australia ",,"3H57+33 Richmond, South Australia, Australia",-34.9422527,138.5626451
Classic Clean Auto Electrician Adelaide,"428 Main N Rd, Blair Athol SA 5084, Australia ",,"4JR2+46 Blair Athol, South Australia, Australia",-34.8596485,138.6005885
Adelaide car wash,"859 South Rd, Clarence Gardens SA 5039, Australia ",,"2HHF+4F Clarence Gardens, South Australia, Australia",-34.9721834,138.5737271
Mobile Car Wash Adelaide,"Unit 5/47-49 Elizabeth St, Norwood SA 5067, Australia ",https://mobilecarwashadelaide.com.au/,"3JFH+HR Norwood, South Australia, Australia",-34.9260261,138.6295026
Pitstop Car Wash Campbelltown,"602 Lower North East Rd, Campbelltown SA 5074, Australia ",,"4MC7+45 Campbelltown, South Australia, Australia",-34.8796768,138.662918
HappyWash Evandale,"87/91 Portrush Rd, Evandale SA 5069, Australia ",https://www.otr.com.au/happywash-car-wash/,"3JWQ+8M Evandale, South Australia, Australia",-34.904163,138.6391824
HappyWash Brighton,"484 Brighton Rd, Brighton SA 5048, Australia ",https://www.otr.com.au/happywash-car-wash/,"XGJF+2C Brighton, South Australia, Australia",-35.0199829,138.5236074
ULTIMATE XPRESS,"415 Brighton Rd, Brighton SA 5048, Australia ",https://ultimatexpress.com.au/,"XGPC+GW Brighton, South Australia, Australia",-35.0137395,138.5223423
Clean Getaway Car Wash,"365 Grange Rd, Findon SA 5023, Australia ",,"3GVH+R4 Findon, South Australia, Australia",-34.905414,138.5278414
SEVEN7H Car Detailing,"23 Sixth Ave, Cheltenham SA 5014, Australia ",https://www.seven7hcardetailing.com/,"4GMC+6W Cheltenham, South Australia, Australia",-34.8669745,138.5222859
HappyWash Kensington,"294 The Parade, Kensington SA 5068, Australia ",https://www.otr.com.au/locations/kensington-294-the-parade/bp-kensington/,"3JHV+H8 Kensington, South Australia, Australia",-34.9210975,138.643345
Adelaide Automotive Detailing,"16 O'Brien St, Adelaide SA 5000, Australia ",http://adelaideautomotivedetailing.com.au/,"3H8Q+9R Adelaide, South Australia, Australia",-34.9340383,138.5896132
HappyWash Unley,"17 King William Rd, Hyde Park SA 5061, Australia ",https://www.otr.com.au/locations/unley-17-king-william-road/bp-hyde-park/,"3J42+Q4 Hyde Park, South Australia, Australia",-34.9430013,138.6002593
Immaculate Detailing,"1 North Terrace, Adelaide SA 5000, Australia ",,"3HGQ+W4 Adelaide, South Australia, Australia",-34.9226531,138.5878046
Laserwash,"140 Grange Rd, Flinders Park SA 5025, Australia ",,"3HW3+56 Flinders Park, South Australia, Australia",-34.9045681,138.5531085
HappyWash Kilburn,"427-433 Churchill Rd, Kilburn SA 5084, Australia ",https://www.otr.com.au/locations/kilburn-427-churchill-rd/bp-kilburn/,"4HRM+49 Kilburn, South Australia, Australia",-34.859687,138.5834396
HappyWash Pooraka,"126 Bridge Rd, Pooraka SA 5095, Australia ",https://www.otr.com.au/locations/pooraka-126-bridge-road/bp-pooraka/,"5JCJ+PQ Pooraka, South Australia, Australia",-34.8281669,138.6319122
Pitstop Hand Carwash,"294 Marion Rd, Netley SA 5037, Australia ",,"2HX3+99 Netley, South Australia, Australia",-34.9516199,138.5534094
Phoenix Mobile Automotive Detailing,"15b Clifford St, South Brighton SA 5048, Australia ",https://phoenixmobileautomotivedetailing.com.au/,"XGFJ+8M South Brighton, South Australia, Australia",-35.0267377,138.5317151
HappyWash Glengowrie,"80 Oaklands Rd, Glengowrie SA 5044, Australia ",https://www.otr.com.au/locations/glengowrie-80-oaklands-road/otr-glengowrie/,"2G3J+F9 Glengowrie, South Australia, Australia",-34.9963127,138.5308957
GMC Detailing,"9 Amber Ave, Clearview SA 5085, Australia ",https://www.gmcd.com.au/services/,"5J26+J6 Clearview, South Australia, Australia",-34.8484512,138.6105758
Nadas Autocare (Northern Adelaide Detailing Automotive Services),"115 Angle Vale Rd, Angle Vale SA 5117, Australia ",https://nadasautocare.com/,"9J5X+XP Angle Vale, South Australia, Australia",-34.6400446,138.6492736
HappyWash Brompton,"73/77 Torrens Rd, Brompton SA 5007, Australia ",https://www.otr.com.au/happywash-car-wash/,"4H3J+PH Brompton, South Australia, Australia",-34.8956409,138.5814584
Quality hand car wash,"castle plaza, 992 South Rd, Edwardstown SA 5039, Australia ",https://qualitycarwash.com.au/,"2H9F+MC Edwardstown, South Australia, Australia",-34.9807639,138.5736172
Happy Wash Wayville,"51 Goodwood Rd, Wayville SA 5034, Australia ",https://www.otr.com.au/locations/wayville-51-goodwood-road/bp-wayville/,"3H3R+C4 Wayville, South Australia, Australia",-34.9464784,138.590264
HappyWash Torrensville,"253 Henley Beach Rd, Torrensville SA 5031, Australia ",https://www.otr.com.au/happywash-car-wash/,"3HG3+35 Torrensville, South Australia, Australia",-34.9248291,138.55298
Car wash,"48 Merchant Cres, Pooraka SA 5095, Australia ",,"5J86+J3 Pooraka, South Australia, Australia",-34.8334968,138.6101554
Mobo Car detailing,"Kilsby St, Elizabeth Park SA 5113, Australia ",https://builder.bookipi.com/pages/mobo-car-detailing,"7MMP+VG Elizabeth Park, South Australia, Australia",-34.7153419,138.6863201
HappyWash Athelstone,"310 Gorge Rd, Athelstone SA 5076, Australia ",https://www.otr.com.au/happywash-car-wash/,"4PH2+85 Athelstone, South Australia, Australia",-34.8717417,138.7004209
Pitstop Car Wash,"238 Curtis Rd, Munno Para West SA 5115, Australia ",,"8MGM+Q4 Munno Para West, South Australia, Australia",-34.6731241,138.6828397
HappyWash Newton,"72 Gorge Rd, Newton SA 5074, Australia ",https://www.otr.com.au/locations/newton-72-gorge-road/bp-newton/,"4MFF+9F Newton, South Australia, Australia",-34.8766188,138.6736565
Premium Shine Detailing,"Unit 6/113 Welland Ave, Welland SA 5007, Australia ",,"3HR5+5X Welland, South Australia, Australia",-34.9095215,138.5599686
X Convenience - Pit Stop 24/7 Car Wash,"28 Hamblynn Rd, Elizabeth Downs SA 5113, Australia ",http://www.xconvenience.com.au/,"8M2R+JR Elizabeth Downs, South Australia, Australia",-34.6984002,138.6920696
Happy Wash,"West Beach SA 5024, Australia ",,"3G38+RV West Beach, South Australia, Australia",-34.9454712,138.5171717
HappyWash Fullarton,"390 Fullarton Rd, Fullarton SA 5063, Australia ",https://www.otr.com.au/happywash-car-wash/,"2JVG+CF Fullarton, South Australia, Australia",-34.9563908,138.6261644
PB 32 Pro Paint Protection Adelaide,"979 Port Rd, Cheltenham SA 5014, Australia ",,"4GJ9+4V Cheltenham, South Australia, Australia",-34.8697068,138.5197457
Fine Automotive Detailing,"42 Moss Ave, Marleston SA 5033, Australia ",https://fineautomotivedetailing.com.au/,"3H37+38 Marleston, South Australia, Australia",-34.9472706,138.5633295
Nestie Detailing,"16 Goldsborough Rd, Cavan SA 5094, Australia ",https://www.nestiedetailing.com.au/,"5J92+6C Cavan, South Australia, Australia",-34.8319186,138.6010739
Elite Finish,"15 Oaklands Rd, Somerton Park SA 5044, Australia ",http://www.elitefinish.com.au/,"2G3F+3C Somerton Park, South Australia, Australia",-34.9973422,138.5236211
Quick N Clean Mount Barker,"1/1 Diagonal Rd, Totness SA 5250, Australia ",,"WVW2+2Q Totness, South Australia, Australia",-35.0549486,138.8519271
HappyWash Hilton,"81 Sir Donald Bradman Dr, Hilton SA 5033, Australia ",http://www.ontherun.com.au/locations/hilton-79-81-sir-donald-bradman-dve/bp-hilton/,"3H99+2P Hilton, South Australia, Australia",-34.9324922,138.5692845
bp,"41-49 West Terrace, Adelaide SA 5000, Australia ",https://map.bp.com/en-AU/AU/gas-station/adelaide/bp-otr-west-terrace/3171,"3HFQ+V5 Adelaide, South Australia, Australia",-34.9253,138.5879
Tiptop car wash,"Richmond Rd, Keswick Terminal SA 5035, Australia ",,"3H57+43 Keswick Terminal, South Australia, Australia",-34.942148,138.5627357
HappyWash Blackwood,"203 Main Rd, Blackwood SA 5051, Australia ",https://www.otr.com.au/happywash-car-wash/,"XJM8+6R Blackwood, South Australia, Australia",-35.016948,138.6170346
HappyWash Glandore,"134/136A Anzac Hwy, Kurralta Park SA 5037, Australia ",https://www.otr.com.au/locations/glandore--130-136-anzac-highway/on-the-run-glandore/,"2HV9+VG Kurralta Park, South Australia, Australia",-34.9553153,138.5687669
Supreme Car Detailing Adelaide,"Research Rd, Pooraka SA 5095, Australia ",https://www.facebook.com/profile.php?id=100091862346691&mibextid=LQQJ4d,"5JMM+JR Pooraka, South Australia, Australia",-34.8159301,138.6345377
HappyWash Darlington,"1487-1489 Main S Rd, Darlington SA 5047, Australia ",https://www.otr.com.au/happywash-car-wash/,"XHF6+X9 Darlington, South Australia, Australia",-35.0250937,138.5609134
Pepper's Truck Wash,"553 Grand Jct Rd, Wingfield SA 5013, Australia ",http://www.lavertontruckwash.net.au/,"5H2C+J5 Wingfield, South Australia, Australia",-34.8484063,138.570473
Atomic Detailing Adelaide,"Unit 6/11-13 Bremen Dr, Salisbury South SA 5106, Australia ",https://www.atomicdetailingadelaide.com.au/,"6J8P+QH Salisbury South, South Australia, Australia",-34.783119,138.6364776
HappyWash Hillbank,"Lot 92 Main N Rd, Hillbank SA 5112, Australia ",https://www.otr.com.au/locations/hillbank-lot-92-main-north-rd/otr-hillbank/,"7M4G+XM Hillbank, South Australia, Australia",-34.7425735,138.6767083
