Name,Address,Website,Plus-code,lat,lon
Concierge Car Wash - Broadway Shopping Centre,"1 Bay St, Broadway NSW 2007, Australia ",https://www.conciergecarwash.com.au/,"458V+QM Glebe, New South Wales, Australia",-33.8830279,151.1941862
Platinum Car Wash and Detailing Services,"2 Quay St, Haymarket NSW 2000, Australia ",,"4693+W7 Haymarket, New South Wales, Australia",-33.8801676,151.2032232
GetNeat Mobile Car Wash,"95 Ross St, Forest Lodge NSW 2037, Australia ",https://getneat.com.au/,"45CH+9W Forest Lodge, New South Wales, Australia",-33.8790726,151.1797793
We Wash 'em,"10 Hay St, Haymarket NSW 2000, Australia ",,"46C2+CJ Haymarket, New South Wales, Australia",-33.8789912,151.2015044
Gem Premium Hand Car Wash Waterloo,"Meriton Retail Precinct, Parking Level 1, Crescent St, Waterloo NSW 2017, Australia ",https://gempremiumhandcarwash.com.au/,"4627+WM Waterloo, New South Wales, Australia",-33.89764,151.2141467
Wax Car Wash,"375 Cleveland St, Redfern NSW 2016, Australia ",https://www.waxcarwash.com.au/,"4656+CF Redfern, New South Wales, Australia",-33.8914701,151.2112472
Gold Car Wash & Cafe,"44 O'Riordan St, Alexandria NSW 2015, Australia ",http://www.goldcarwashcafe.com.au/,"35QX+83 Alexandria, New South Wales, Australia",-33.9117478,151.1977002
World Square Xtream Hand Car Wash & Detailing,"World Square Shopping Centre, Car Park, Level P6/644 George St, Sydney NSW 2000, Australia ",https://www.xtreamcarwash.com.au/,"46C4+VC Sydney, New South Wales, Australia",-33.8777691,151.2060571
Fast Sale Car Detailing Sydney,"Suite 3, Level 27 Governor Macquarie Tower, 1 Farrer Pl, Sydney NSW 2000, Australia ",https://www.fastsaledetailing.com.au/,"46P6+8G Sydney, New South Wales, Australia",-33.8641591,151.2113333
RY carwash,"941 Bourke St, Waterloo NSW 2017, Australia ",,"36X5+89 Waterloo, New South Wales, Australia",-33.9016907,151.2084321
Fine Shine,"2/4 Defries Ave, Zetland NSW 2017, Australia ",http://www.fineshine.com.au/,"36V7+V5 Zetland, New South Wales, Australia",-33.905273,151.2129307
Star Car Wash - Sydney QVB,"QVB, 455 George St, Sydney NSW 2000, Australia ",https://www.starcarwash.com.au/centres/qvb-cbd/?utm_source=google&utm_medium=organic&utm_campaign=gmb-listing,"46H4+5M Sydney, New South Wales, Australia",-33.8721139,151.206738
Pros Mobile Mechanic Sydney Carwash,"Glebe NSW 2037, Australia ",,"458V+FH Glebe, New South Wales, Australia",-33.8837862,151.1938764
Wow Wash P/L.,"5 Parsons St, Rozelle NSW 2039, Australia ",http://www.wowwash.com.au/,"45MG+WJ Rozelle, New South Wales, Australia",-33.865165,151.176503
Platinum Carwash & Detailing Services - Darling Park,"201 Sussex St, Sydney NSW 2000, Australia ",,"46H3+5H Sydney, New South Wales, Australia",-33.8720761,151.2038774
Sydney mobile car wash,"394-396 Oxford St, Paddington NSW 2021, Australia ",https://sydney-mobile-car-wash.yolasite.com/,"467J+66 Paddington, New South Wales, Australia",-33.8869256,151.2305308
IMO Car Wash,"15 Ross Smith Ave, Mascot NSW 2020, Australia ",https://www.imocarwash.com/au/car-washes/mascot-new-south-wales/sydney-airport-car-wash/?y_source=1_MTIyNzE1NDUtNzE1LWxvY2F0aW9uLndlYnNpdGU%3D,"358R+QF Mascot, New South Wales, Australia",-33.9330723,151.1911591
Shell,"387-427 Wattle Street, Kelly St, Ultimo NSW 2007, Australia ",https://find.shell.com/au/fuel/10110979-shell-coles-express-ultimo/en_AU,"459W+CP Ultimo, New South Wales, Australia",-33.8813918,151.1967783
Fine Shine Ceramic Coating,"Shop T66 2, 4 Defries Ave, Zetland NSW 2017, Australia ",https://ceramiccoating.sydney/,"36V7+V6 Zetland, New South Wales, Australia",-33.9052704,151.2130888
Wax Car Wash,"375 Cleveland St, Redfern NSW 2016, Australia ",https://www.waxcarwash.com.au/,"4656+CF Redfern, New South Wales, Australia",-33.8914701,151.2112472
Gil’s Mobile Detailing,"14 Bellevue St, Surry Hills NSW 2010, Australia ",http://gilsmobiledetailing.com.au/,"4686+GP Surry Hills, New South Wales, Australia",-33.8836998,151.2117567
Snap Car Wash Woolooware (Bay Central - Level P2 Car Park),"Car Park, Level P2/453a Captain Cook Dr, Woolooware NSW 2230, Australia ",https://www.snapcarwash.com.au/,"X46V+J5 Woolooware, New South Wales, Australia",-34.0384451,151.1429673
Classic1 Hand Carwash Cafe,"379 Princes Hwy, Sydenham NSW 2044, Australia ",,"35MC+3J Sydenham, New South Wales, Australia",-33.9172973,151.1715489
Sydney mobile car wash,"394-396 Oxford St, Paddington NSW 2021, Australia ",https://sydney-mobile-car-wash.yolasite.com/,"467J+66 Paddington, New South Wales, Australia",-33.8869256,151.2305308
Pros Mobile Mechanic Sydney Carwash,"Glebe NSW 2037, Australia ",,"458V+FH Glebe, New South Wales, Australia",-33.8837862,151.1938764
Goat Detailer,"11/13-15 Burrows Rd S, St Peters NSW 2044, Australia ",http://www.goatdetailer.com.au/,"35HG+CV St Peters, New South Wales, Australia",-33.9214029,151.1771355
WoW detailing studio,"2 Watermans Quay, Barangaroo NSW 2000, Australia ",https://wowdetailing.com.au/,"46P2+RR Barangaroo, New South Wales, Australia",-33.8629486,151.2021122
Flash Hand Car Wash,"400 Princes Hwy, St Peters NSW 2044, Australia ",,"35MC+2Q St Peters, New South Wales, Australia",-33.9174798,151.1719743
St. Peter’s express car wash,"379 Princes Hwy, St Peters NSW 2044, Australia ",,"35MC+3H St Peters, New South Wales, Australia",-33.9173061,151.1714676
IMO Car Wash,"15 Ross Smith Ave, Mascot NSW 2020, Australia ",https://www.imocarwash.com/au/car-washes/mascot-new-south-wales/sydney-airport-car-wash/?y_source=1_MTIyNzE1NDUtNzE1LWxvY2F0aW9uLndlYnNpdGU%3D,"358R+QF Mascot, New South Wales, Australia",-33.9330723,151.1911591
OK mobile car wash and detailing,"2000, Sydney NSW 2000, Australia ",,"46H4+MW Sydney, New South Wales, Australia",-33.8708464,151.20733
Star Car Wash - Entertainment Quarter,"Star Car Wash, Entertainment Quarter, 116/122 Lang Rd, Moore Park NSW 2021, Australia ",https://www.starcarwash.com.au/centres/entertainment-quarter-2/?utm_source=google&utm_medium=organic&utm_campaign=gmb-appt,"463G+W4 Moore Park, New South Wales, Australia",-33.8952187,151.2253479
Platinum Carwash & Detailing Services - Darling Park,"201 Sussex St, Sydney NSW 2000, Australia ",,"46H3+5H Sydney, New South Wales, Australia",-33.8720761,151.2038774
Diamond Detailing Division,"22/168-180 Victoria Rd, Marrickville NSW 2204, Australia ",https://www.diamonddetailingdivision.com.au/,"35R7+GG Marrickville, New South Wales, Australia",-33.9086572,151.163775
Paddington Auto Detailing,"56-58 Sutherland St, Paddington NSW 2021, Australia ",http://paddingtonautodetailing.com/?utm_source=google&utm_medium=wix_google_business_profile&utm_campaign=6827969449349459480,,-33.8825717,151.2333705
Rainbow Hand Car Wash & Cafe Drummoyne,"120 Victoria Rd, Drummoyne NSW 2047, Australia ",http://rainbowcarwashcafe.com/,,-33.8533764,151.1571127
Crystal Car Wash Edgecliff,"67 New South Head Rd, Edgecliff NSW 2021, Australia ",http://www.crystalcarwash.com/,"46FJ+6G Edgecliff, New South Wales, Australia",-33.8769513,151.2312987
Fine Shine Ceramic Coating,"Shop T66 2, 4 Defries Ave, Zetland NSW 2017, Australia ",https://ceramiccoating.sydney/,"36V7+V6 Zetland, New South Wales, Australia",-33.9052704,151.2130888
Car Wash,"Neutral Bay NSW 2089, Australia ",,"56C8+8J Neutral Bay, New South Wales, Australia",-33.8292001,151.2165529
Star Car Wash - Grosvenor Place,"7 Essex St, The Rocks NSW 2000, Australia ",http://starcarwash.com.au/,"46Q4+5M The Rocks, New South Wales, Australia",-33.8620999,151.2066839
Crystal Car Wash Kingsford,"417 Anzac Parade, Kingsford NSW 2032, Australia ",http://crystalcarwash.com/,,-33.9259228,151.2297537
Inner West Detailing,"Enter Justin St Lane, Way/30 Halloran St, Lilyfield NSW 2040, Australia ",http://iwdetailing.com.au/,,-33.8722001,151.1651839
Star Car Wash - Birkenhead Point,"Centre Blue Level Car, Birkenhead Point Outlet, 19 Roseby St, Drummoyne NSW 2047, Australia ",https://www.starcarwash.com.au/centres/birkenhead-point/?utm_source=google&utm_medium=organic&utm_campaign=gmb-listing,,-33.8555224,151.1621054
Star Car Wash - Alexandria Homemaker Centre,"Alexandria Homemaker Centre, Under Spotlight Sign, 49-59 O'Riordan St, Alexandria NSW 2015, Australia ",https://www.starcarwash.com.au/centres/alexandria/,,-33.9137229,151.1942367
Glosshaus,"Unit 41/566 Gardeners Rd, Alexandria NSW 2015, Australia ",http://www.glosshaus.com.au/,,-33.9196608,151.1846757
Star Car Wash - Headquarter Office,"Unit 43/34 – 36 Ralph St, Alexandria NSW 2015, Australia ",https://www.starcarwash.com.au/,,-33.9186866,151.1972141
getneat Mobile Car Wash North Shore,"2 Spruson St, Neutral Bay NSW 2089, Australia ",https://getneat.com.au/,,-33.8390645,151.2157286
Jim’s Car Cleaning,"Citigroup Centre, Level 13, 2 Park St, Sydney NSW 2000, Australia ",http://jimscardetailing.sydney/,,-33.8726651,151.2076409
WOW Wash Mobile Car Wash & Detailing,"15 Blue St, North Sydney NSW 2060, Australia ",http://wowwashmobilecardetailing.com.au/,,-33.8412663,151.207498
Precision detailing sydney,"123 Pitt St, Sydney NSW 2000, Australia ",,"46M5+89 Sydney, New South Wales, Australia",-33.8666763,151.2083773
Car Alchemist,"2/98 Joynton Ave, Zetland NSW 2017, Australia ",http://www.caralchemist.com/,"36W6+G4 Zetland, New South Wales, Australia",-33.9037457,151.2102584
Chullora Car Wash,"Chullora Marketplace, 355/357 Waterloo Rd, Chullora NSW 2190, Australia ",,"4346+QG Chullora, New South Wales, Australia",-33.8930172,151.0612779
Diamond finish car wash,"235 O'Riordan St, Mascot NSW 2020, Australia ",http://www.diamondfinish.com.au/,"35CP+4H Mascot, New South Wales, Australia",-33.9297293,151.1864318
Inch-Care Car Detailing,"100 Collins St, Alexandria NSW 2015, Australia ",http://www.inchcare.com.au/,"35QW+M8 Alexandria, New South Wales, Australia",-33.9108014,151.1957797
FW1 Australia,"127 New South Head Rd, Bondi Junction NSW 2022, Australia ",http://www.fw1.com.au/,"46FM+49 Bondi Junction, New South Wales, Australia",-33.8772372,151.2334596
Tigerr Detailing,"1/26 Kent Rd, Mascot NSW 2020, Australia ",https://www.tigerrdetailing.com.au/,"35HM+6H Mascot, New South Wales, Australia",-33.9219686,151.1839098
Rinsed,"15 Belvoir St, Surry Hills NSW 2010, Australia ",,"4664+FX Surry Hills, New South Wales, Australia",-33.888873,151.2073792
Shell,"867-869 S Dowling St, Waterloo NSW 2017, Australia ",https://find.shell.com/au/fuel/10110985-shell-reddy-express-waterloo/en_AU,"36X7+7Q Waterloo, New South Wales, Australia",-33.9018338,151.2144619
IMO Car Wash,"2 Raintree Way, Mount Annan NSW 2567, Australia ",https://www.imocarwash.com/au/car-washes/mt-annan-new-south-wales/mt-annan-car-wash/?y_source=1_MTIyNzE3NDMtNzE1LWxvY2F0aW9uLndlYnNpdGU%3D,"XQ24+GC Mount Annan, New South Wales, Australia",-34.0487202,150.7560156
Car is here,"95 Lennox St, Newtown NSW 2042, Australia ",,"453G+FM Newtown, New South Wales, Australia",-33.8962907,151.1767181
Awash Carcare Melrose Park,"1206 Victoria Rd, Melrose Park NSW 2114, Australia ",http://www.awash.com.au/,"53VC+4R Melrose Park, New South Wales, Australia",-33.8071269,151.0720413
Awash Carcare & Cafe,"459 Victoria Rd, Gladesville NSW 2111, Australia ",http://www.awash.com.au/,"54HC+2W Gladesville, New South Wales, Australia",-33.8224733,151.1222667
Car Skinning Sydney,"50 McEvoy St, Waterloo NSW 2017, Australia ",http://carskinning.com.au/,"36X3+72 Waterloo, New South Wales, Australia",-33.9018553,151.2025132
AutoCare,"2000/78 King St, Sydney NSW 2000, Australia ",http://bengaria.com/,"46J5+J3 Sydney, New South Wales, Australia",-33.8684801,151.2076862
Polish Perfection Detailing,"42C Formosa St, Drummoyne NSW 2047, Australia ",https://www.polishperfectiondetailing.com.au/,"45W4+5R Drummoyne, New South Wales, Australia",-33.8545155,151.1571061
Detailing dale,"Mullens St, Balmain NSW 2039, Australia ",,"45QG+2H Balmain, New South Wales, Australia",-33.8624932,151.176389
Correct Detailing- Best Vehicle Detailing Sydney,"347 Princes Hwy, St Peters NSW 2044, Australia ",https://www.correctdetailing.com.au/,"35MC+7R St Peters, New South Wales, Australia",-33.9167858,151.1720379
the brothers car detailing,"7 John St, Mascot NSW 2020, Australia ",,"35GQ+9M Mascot, New South Wales, Australia",-33.9240052,151.1891973
Jekos Mobile Detailing,"Sydney NSW 2000, Australia ",http://jekosdetailing.com.au/,"46J5+FP Sydney, New South Wales, Australia",-33.8688197,151.2092955
Avoca Street Carwash,"107 Avoca St, Randwick NSW 2031, Australia ",https://avocastreetcarwash.com.au/,"36QV+6C Randwick, New South Wales, Australia",-33.9118993,151.2435329
Diamond Lux,"Unit 801/17 Joynton Ave, Zetland NSW 2017, Australia ",,"36W5+89 Zetland, New South Wales, Australia",-33.9041891,151.2084141
The PPF Studio,"755 Darling St, Rozelle NSW 2039, Australia ",https://theppfstudio.com.au/,"45M8+QQ Rozelle, New South Wales, Australia",-33.8655093,151.1669702
Shynex Car Care - Waterless Wash Products,"78/788 Bourke St, Waterloo NSW 2017, Australia ",,"4627+P2 Waterloo, New South Wales, Australia",-33.8981415,151.2125209
Laurinda car detailing pty ltd,"10 Lilian Fowler Pl, Marrickville NSW 2204, Australia ",http://www.laurindacardetailing.com.au/,"35R9+79 Marrickville, New South Wales, Australia",-33.909328,151.16848
PL cafe,"941/953 Bourke St, Waterloo NSW 2017, Australia ",,"36X5+77 Waterloo, New South Wales, Australia",-33.9018215,151.2082179
The Tinting Machine,"966-968 Elizabeth St, Zetland NSW 2017, Australia ",http://thetintingmachine.com.au/,"36V4+7X Zetland, New South Wales, Australia",-33.9068178,151.2074949
JC All Automotive,"71 Burrows Rd, Alexandria NSW 2015, Australia ",,"35PQ+R5 Alexandria, New South Wales, Australia",-33.9129492,151.1879797
Hills Hand Car Wash and Cafe,"60 Windsor Rd, Kellyville NSW 2155, Australia ",http://www.hillscarwash.com.au/,"7XQ4+4H Kellyville, New South Wales, Australia",-33.7122082,150.9564595
Shell Reddy Express Waterloo,"867-869 S Dowling St, Waterloo NSW 2017, Australia ",https://www.reddyexpress.com.au/stores?utm_source=gmb&utm_medium=yext&utm_campaign=1561,"36X7+8Q Waterloo, New South Wales, Australia",-33.9016734,151.2144505
Ampol Foodary Randwick,"2 Alison Rd, Randwick NSW 2031, Australia ",https://locations.ampol.com.au/en/ampol-foodary-randwick,"36VJ+9R Randwick, New South Wales, Australia",-33.9066063,151.2320332
bp,"339 Princes Hwy, St Peters NSW 2044, Australia ",https://map.bp.com/en-AU/AU/gas-station/sydenham/bp-sydenham/9569,"35MF+F4 St Peters, New South Wales, Australia",-33.9162934,151.1728101
Vertical Cleaning Services,"39 Shelley St, Barangaroo NSW 2000, Australia ",http://www.verticalcleaning.com.au/,"46J3+V2 Barangaroo, New South Wales, Australia",-33.8677926,151.2025502
Quality is Priority Autodetailing,"201 Sussex St, Sydney NSW 2000, Australia ",,"46H3+7H Sydney, New South Wales, Australia",-33.8718241,151.2039828
Prior Avenue Car Wash,"Prior Ave, Cremorne Point NSW 2090, Australia ",,"566G+Q3 Cremorne Point, New South Wales, Australia",-33.8380197,151.2252299
North Shore Car Care,"Mosman St, Mosman NSW 2088, Australia ",,"566M+C2 Mosman, New South Wales, Australia",-33.8388779,151.2326141
