Name,Address,Website,Plus-code,lat,lon
Turramurra Car Wash,"1333 Pacific Hwy, Turramurra NSW 2074, Australia ",,"748G+RR Turramurra, New South Wales, Australia",-33.73298,151.127077
Morgan Car Detailing,"6 James La, Waitara NSW 2077, Australia ",http://www.morgancardetailing.com.au/,,-33.708717,151.101284
DAM Detailing North Shore,"41 Warrimoo Ave, St Ives NSW 2075, Australia ",http://damdetailing.com.au/,"75J3+3F St Ives, New South Wales, Australia",-33.7197512,151.1536936
Star Car Wash - Westfield Hornsby (Orange Level Car Park),"8 Albert St, Hornsby NSW 2077, Australia ",https://www.starcarwash.com.au/centres/hornsby/?utm_source=google&utm_medium=organic&utm_campaign=gmb-listing,"74V2+VV Hornsby, New South Wales, Australia",-33.7052533,151.1021741
Auto Perfection Detailing,"2/95 Hunter St, Hornsby NSW 2077, Australia ",http://www.autoperfectiondetailing.com.au/,"8422+6F Hornsby, New South Wales, Australia",-33.699484,151.101184
Inch-Care Car Detailing,"4 Leonard St, Waitara NSW 2077, Australia ",https://www.inchcare.com.au/,"74R2+R3 Waitara, New South Wales, Australia",-33.7079427,151.1001669
Star Car Wash - Westfield Hornsby 2 (near Fitness First),"in front of Fitness First Gym, Muriel St Westfield Hornsby (Entry Via, Muriel St, Hornsby NSW 2077, Australia ",https://starcarwash.com.au/,"74W3+F6 Hornsby, New South Wales, Australia",-33.7038621,151.1030532
Star Car Wash - Mount Colah,"Star Car Wash, 527-531 Pacific Hwy, Mount Colah NSW 2079, Australia ",https://www.starcarwash.com.au/centres/mount-colah/,"84F6+5Q Mount Colah, New South Wales, Australia",-33.6770565,151.1119941
Star Car Wash - Gordon Centre,"802-808, Gordon NSW 2072, Australia ",https://www.starcarwash.com.au/centres/gordon/,"65W2+2Q Gordon, New South Wales, Australia",-33.7549288,151.1519852
DB's Detailing,"Belle Rose, unit 44 165/167 Rosedale Rd, St Ives NSW 2075, Australia ",https://dbsdetailing.com.au/,"7596+8C St Ives, New South Wales, Australia",-33.7316712,151.1610613
VIP CAR WASH & DETAILING,"1/69 Werona Ave, Gordon NSW 2072, Australia ",http://www.vipcarcare.com.au/,"65V4+G6 Gordon, New South Wales, Australia",-33.756183,151.15556
WashNDash,"119A Hull Rd, West Pennant Hills NSW 2125, Australia ",,"7364+75 West Pennant Hills, New South Wales, Australia",-33.7393604,151.0553915
Xtream Car Care Chatwood Chase,"B2 and GA Chatswood Chase, 345 Victoria Ave, Chatswood NSW 2067, Australia ",http://www.xtreamcarcare.com.au/,"654P+5C Chatswood, New South Wales, Australia",-33.7945603,151.186122
Detail Hub - Motorcycle Detailing & Wrapping,"Unit 2/103 Hunter St, Hornsby NSW 2077, Australia ",http://detailhub.com.au/,"8422+CF Hornsby, New South Wales, Australia",-33.6988794,151.1012283
Snap Car Wash Chatswood,"P1 Below Coles Level, 1 Anderson St, Chatswood NSW 2067, Australia ",https://snapcarwash.com.au/,"652M+PJ Chatswood, New South Wales, Australia",-33.7981774,151.1841099
Prime Hand Car Wash,"710 Pennant Hills Rd, Carlingford NSW 2118, Australia ",http://www.primecarwash.com.au/,"62PW+QX Carlingford, New South Wales, Australia",-33.7630272,151.0474306
Concierge Car Wash Crows Nest,"448 Pacific Hwy, Crows Nest NSW 2065, Australia ",https://conciergecarwash.com.au/,"55GX+24 Crows Nest, New South Wales, Australia",-33.8249579,151.1977692
Star Car Wash - Macquarie Centre 2 (David Jones entry),"Macquarie Centre Cnr of Herring Rd &, Waterloo Rd, Macquarie Park NSW 2113, Australia ",https://www.starcarwash.com.au/centres/macquarie-centre-2/?utm_source=google&utm_medium=organic&utm_campaign=gmb-listing,"64FC+86 Macquarie Park, New South Wales, Australia",-33.7767187,151.1205172
Star Car Wash,"P5, Pink Car Park, Albert St, Hornsby NSW 2077, Australia ",https://www.starcarwash.com.au/locations,"74X2+7X Hornsby, New South Wales, Australia",-33.7018275,151.1023984
DB's Detailing,"Belle Rose, unit 44 165/167 Rosedale Rd, St Ives NSW 2075, Australia ",https://dbsdetailing.com.au/,"7596+8C St Ives, New South Wales, Australia",-33.7316712,151.1610613
Mobile Shine Sydney,"166 Mona Vale Rd, St Ives NSW 2075, Australia ",https://www.facebook.com/profile.php?id=61559119942475,"75C5+3J St Ives, New South Wales, Australia",-33.7298085,151.1590724
Gold Car Wash & Cafe,"44 O'Riordan St, Alexandria NSW 2015, Australia ",http://www.goldcarwashcafe.com.au/,"35QX+83 Alexandria, New South Wales, Australia",-33.9117478,151.1977002
Dominant Details,"346 Malton Rd, North Epping NSW 2121, Australia ",https://dominantdetailingc.wixsite.com/dominantdetails,"63VX+8V North Epping, New South Wales, Australia",-33.7566991,151.0996962
Star Car Wash,"L2 Orange Level, 236 Pacific Hwy, Hornsby NSW 2077, Australia ",https://www.starcarwash.com.au/locations,"73WX+2X Hornsby, New South Wales, Australia",-33.7049846,151.0999087
Star Car Wash - Macquarie Centre (Valet Entry),"Macquarie Centre Cnr of Waterloo Rd &, Herring Rd, Macquarie Park NSW 2113, Australia ",https://www.starcarwash.com.au/centres/macquarie-centre-1/?utm_source=google&utm_medium=organic&utm_campaign=gmb-listing,"64FC+86 Macquarie Park, New South Wales, Australia",-33.7767187,151.1205172
Premier Hand Car Wash,"1 Anderson St, Chatswood NSW 2067, Australia ",,"653M+45 Chatswood, New South Wales, Australia",-33.7972114,151.1828916
Car wash,"11 Craiglea Gardens, Carlingford NSW 2118, Australia ",,"63P6+43 Carlingford, New South Wales, Australia",-33.7647386,151.0602134
The Washouse,"1 Resolution Pl, Rouse Hill NSW 2155, Australia ",https://thewashouse.com.au/,"8W89+5F Rouse Hill, New South Wales, Australia",-33.6845571,150.9187002
There power,"44 Silvia St, Hornsby NSW 2077, Australia ",,"834W+46 Hornsby, New South Wales, Australia",-33.6946456,151.0955434
Manny's Mobile Detailing and Ceramic Coating (Castle Hill),"7 Sefton Rd, Thornleigh NSW 2120, Australia ",https://mannyscarwashau.wixsite.com/mannys,"73HM+7X Thornleigh, New South Wales, Australia",-33.7218323,151.0848912
Detail Lab - Premium Car Detailing | Paint Protection Sydney | Ceramic Coating | Paint Protection Film PPF,"Unit 28/28 Barcoo St, Roseville NSW 2069, Australia ",https://www.detaillab.com.au/?utm_source=google&utm_medium=GMB&utm_campaign=GMB,"658W+2F Roseville, New South Wales, Australia",-33.7848941,151.1961866
Star Car Wash - Westfield Warringah (Level 1),"near Bunnings up the ramp, Warringah Mall, Level 1 Seahorse Car Park (Cnr of Dale and, Cross St, Brookvale NSW 2100, Australia ",https://www.starcarwash.com.au/centres/warringah-mall-1/?utm_source=google&utm_medium=organic&utm_campaign=gmb-listing,"67M9+J8 Brookvale, New South Wales, Australia",-33.765897,151.2682918
Shell,"194-206 Pacific Hwy, Hornsby NSW 2077, Australia ",https://find.shell.com/au/fuel/10110855-shell-reddy-express-hornsby/en_AU,"73VX+3J Hornsby, New South Wales, Australia",-33.7072598,151.0990456
Pure Car Wash,"15 Help St, Chatswood NSW 2067, Australia ",,"653H+PG Chatswood, New South Wales, Australia",-33.795663,151.1787834
Shell Reddy Express Wahroonga,"1601 Pacific Hwy &, Coonanbarra Rd, Wahroonga NSW 2076, Australia ",https://www.reddyexpress.com.au/stores?utm_source=gmb&utm_medium=yext&utm_campaign=1596,"74J8+4J Wahroonga, New South Wales, Australia",-33.719667,151.116508
E-Valence,"Unit 13/12 Cecil Rd, Hornsby NSW 2077, Australia ",https://www.e-valence.com.au/,"8437+7W Hornsby, New South Wales, Australia",-33.6968081,151.1147848
Xtream Car Care Epping Steam Detailing,"Epping NSW 2121, Australia ",,"63HJ+P5 Epping, New South Wales, Australia",-33.7706786,151.0804546
DAS AUTO | Car Window Tinting | Ceramic Coating | Detailing,"47 Minchinbury St, Eastern Creek NSW 2766, Australia ",https://dasauto.com.au/,"6R8W+6X Eastern Creek, New South Wales, Australia",-33.7844065,150.8474434
HFDT Tyres & Auto,"836 Pacific Hwy, Gordon NSW 2072, Australia ",https://www.hfdt.com.au/?utm_source=gmb,"65W2+M7 Gordon, New South Wales, Australia",-33.753273,151.1507254
Drop In Car Care,"Noble Pl, Telopea NSW 2117, Australia ",https://www.facebook.com/dropin.sydney,"625R+94 Telopea, New South Wales, Australia",-33.7915186,151.0403249
