Name,Address,Website,Plus-code,lat,lon
Star Car Wash - Castle Towers,"Castle Towers Shopping Centre 6, 14 Eric Felton St, Castle Hill NSW 2154, Australia ",https://www.starcarwash.com.au/centres/castle-towers/?utm_source=google&utm_medium=organic&utm_campaign=gmb-listing,"7294+R4 Castle Hill, New South Wales, Australia",-33.7304692,151.0053424
UNIQUE Car Wash,"16 Victoria Ave, Castle Hill NSW 2154, Australia ",,"7XFG+3Q Castle Hill, New South Wales, Australia",-33.7273417,150.9769721
Star Car Wash - Castle Hill,"6/4 Victoria Ave, Castle Hill NSW 2154, Australia ",http://starcarwash.com.au/,"7X8J+V2 Castle Hill, New South Wales, Australia",-33.7327887,150.9800206
Hills Hand AutoSpa & Detailing,"Shop cp1, 18 Victoria Ave, Castle Hill NSW 2154, Australia ",,"7XFG+6G Castle Hill, New South Wales, Australia",-33.7269501,150.9763282
SYDNEY CAR WASH & DETAILING,"255 Old Northern Rd, Castle Hill NSW 2154, Australia ",,"7283+3C Castle Hill, New South Wales, Australia",-33.734803,151.0035815
Clean Car Culture,"56/4 Hoyle Ave, Castle Hill NSW 2155, Australia ",,"7X9M+24 Castle Hill, New South Wales, Australia",-33.7324908,150.982825
Sparklean Hand Car Wash,"4/16 Terminus St, Castle Hill NSW 2154, Australia ",http://sparkleanhandcarwash.com/,"7284+QG Castle Hill, New South Wales, Australia",-33.7331016,151.0063575
Castle hill car wash,"334 Old Northern Rd, Castle Hill NSW 2154, Australia ",,"7298+PJ Castle Hill, New South Wales, Australia",-33.7306591,151.0165034
Five Star Hand Car Wash,"Unit 1A/2 Acres Rd, Kellyville NSW 2155, Australia ",http://www.fivestarcarwash.com.au/,"7XQ3+MX Kellyville, New South Wales, Australia",-33.7108412,150.9549619
Ultra Fine Car Care,"27/7 Hoyle Ave, Castle Hill NSW 2154, Australia ",http://www.ultrafinecarcare.com.au/,"7X9M+7R Castle Hill, New South Wales, Australia",-33.7317636,150.9845133
Hills Hand Car Wash and Cafe,"60 Windsor Rd, Kellyville NSW 2155, Australia ",http://www.hillscarwash.com.au/,,-33.7122082,150.9564595
Hills Detailing Group,"44 Carrington Rd, Castle Hill NSW 2154, Australia ",,,-33.7296892,150.9839559
Star Car Wash - Kellyville Village,"90 Wrights Rd, Kellyville NSW 2155, Australia ",https://www.starcarwash.com.au/centres/kellyville/?utm_source=google&utm_medium=organic&utm_campaign=gmb-listing,,-33.7125733,150.9723028
Prestige & Custom Car Salon,"9/5 Salisbury Rd, Castle Hill NSW 2154, Australia ",http://www.prestigeandcustom.com/,"7XCG+26 Castle Hill, New South Wales, Australia",-33.7299825,150.9755219
Sparklean Hand Car Wash,"Sky City Building Carpark, Ground Floor, 20B Lexington Dr, Bella Vista NSW 2153, Australia ",http://sparkleanhandcarwash.com/,,-33.7353197,150.9463211
Prestige & Custom Car Salon,"9/5 Salisbury Rd, Castle Hill NSW 2154, Australia ",http://www.prestigeandcustom.com/,"7XCG+26 Castle Hill, New South Wales, Australia",-33.7299825,150.9755219
Star Car Wash - Baulkham Hills,"347 Windsor Rd, Baulkham Hills NSW 2153, Australia ",https://www.starcarwash.com.au/centres/baulkham-hills/?utm_source=google&utm_medium=organic&utm_campaign=gmb-listing,"6XQR+JW Baulkham Hills, New South Wales, Australia",-33.7609219,150.9922522
Western Sydney Detailing - Graphene & Ceramic Paint Protection,"By Appointment Only - Ceramic & Grapene Paint Protection, 52 Darcey Rd, Castle Hill NSW 2154, Australia ",http://www.westernsydneydetailing.com.au/,"7258+82 Castle Hill, New South Wales, Australia",-33.7417059,151.0150022
Coonara professional hand car wash,"35 Coonara Ave, West Pennant Hills NSW 2125, Australia ",https://www.coonaraprofessionalhandcarwash.com.au/,"724J+22 West Pennant Hills, New South Wales, Australia",-33.7449697,151.0300901
Xpert Car Wash,"2 Sentry Dr, Stanhope Gardens NSW 2768, Australia ",https://xpertcarwash.com.au/,"7WJ9+RH Stanhope Gardens, New South Wales, Australia",-33.7179983,150.9189377
Top Gear Car Wash Cafe,"155 Prospect Hwy, Seven Hills NSW 2147, Australia ",https://www.topgearcarwashcafe.com.au/,"6WJR+7X Seven Hills, New South Wales, Australia",-33.7693393,150.9424893
Timeless Detailing & Timeless Tintz,"308 Windsor Rd, Baulkham Hills NSW 2154, Australia ",http://timelesstintz.com.au/,"6XMW+PG Baulkham Hills, New South Wales, Australia",-33.7656424,150.9963354
PR Automotive Detailing,"Marina Rd, Baulkham Hills NSW 2153, Australia ",https://www.facebook.com/pr.automotive.detailing?mibextid=LQQJ4d,"6XQ8+M9 Baulkham Hills, New South Wales, Australia",-33.7608525,150.9658804
"Crazy Car Wash ( Drive-In, Shine-Out)","328/336 N Rocks Rd, North Rocks NSW 2151, Australia ",,"62JJ+C2 North Rocks, New South Wales, Australia",-33.7689611,151.0300851
"REIN Garage | PPF, Colour Wraps & Detailing Studio","Unit 12/10 Victoria Ave, Castle Hill NSW 2154, Australia ",http://reingarage.com/,,-33.7306357,150.9782388
Star Car Wash - Rouse Hill Town Centre,"Centre, 10 - 14 Market Ln, Rouse Hill NSW 2155, Australia ",https://www.starcarwash.com.au/centres/rouse-hill/?utm_source=google&utm_medium=organic&utm_campaign=gmb-listing,"8W5F+VG Rouse Hill, New South Wales, Australia",-33.6902787,150.9238577
VIP Car Detailing North West,"1 Russell St, Baulkham Hills NSW 2153, Australia ",http://www.vipcardetailingnorthwest.com.au/,"62J2+H3 Baulkham Hills, New South Wales, Australia",-33.7685576,151.0001741
MMM Carwash & Detailing,"242 New Line Rd, Dural NSW 2158, Australia ",,"72WG+FX Dural, New South Wales, Australia",-33.7038088,151.0274411
Triple A Hand Carwash,"18 Solander Rd, Kings Langley NSW 2147, Australia ",,"6WVV+MF Kings Langley, New South Wales, Australia",-33.7558314,150.9436431
North Rocks Hand Carwash and Cafe,"369 N Rocks Rd, North Rocks NSW 2151, Australia ",,"62JJ+8V North Rocks, New South Wales, Australia",-33.769207,151.032135
Driven Colour,"2 Daveney Way, West Pennant Hills NSW 2125, Australia ",http://www.drivencolour.com.au/,"726F+6C West Pennant Hills, New South Wales, Australia",-33.7394553,151.0236207
The Hills Car Detailer,"Watkins Rd, Baulkham Hills NSW 2153, Australia ",,"6XMQ+C7 Baulkham Hills, New South Wales, Australia",-33.7664306,150.9882072
ABC Hand Car Wash and Car Detailing Blacktown,"5/148 Sunnyholt Rd, Blacktown NSW 2148, Australia ",https://www.facebook.com/abccarwashblacktown/,"6WW7+RW Blacktown, New South Wales, Australia",-33.7529387,150.914806
Snap Car Wash Winston Hills,"Under Cover Car Park, Entry Via, Caroline Chisholm Dr, Winston Hills NSW 2153, Australia ",https://snapcarwash.com.au/,"6XG9+QR Winston Hills, New South Wales, Australia",-33.7730001,150.9695099
Shining hand car wash,"Federal Rd, Seven Hills NSW 2147, Australia ",,"6WFJ+Q7 Seven Hills, New South Wales, Australia",-33.7755889,150.9306783
Speedway Sunnyholt Car Wash & Detailing,"Cnr Sunnyholt Rd &, Forge St, Blacktown NSW 2148, Australia ",,"6WW8+X3 Blacktown, New South Wales, Australia",-33.752505,150.9152493
Star Car Wash - Kenthurst,"86A Kenthurst Rd, Kenthurst NSW 2156, Australia ",https://starcarwash.com.au/centres/kenthurst,"8296+37 Kenthurst, New South Wales, Australia",-33.6823439,151.0106919
Castle Towers,"Shop 6/14 Castle St, Castle Hill NSW 2154, Australia ",http://www.castletowers.com.au/,"7293+3X Castle Hill, New South Wales, Australia",-33.7323355,151.0049346
The Washouse,"1 Resolution Pl, Rouse Hill NSW 2155, Australia ",https://thewashouse.com.au/,"8W89+5F Rouse Hill, New South Wales, Australia",-33.6845571,150.9187002
Boss of Gloss Detailing,"Johnson Ave, Seven Hills NSW 2147, Australia ",https://bossofglossdetailing.com.au/,"6WPV+G3 Seven Hills, New South Wales, Australia",-33.763662,150.9427495
Ajamscarwashing,"Brampton Dr, Beaumont Hills NSW 2155, Australia ",,"8W2X+C8 Beaumont Hills, New South Wales, Australia",-33.6989312,150.9483332
Bodytech Automotive,"79/4 Hoyle Ave, Castle Hill NSW 2154, Australia ",https://www.bodytechautomotive.com.au/,"7X9M+34 Castle Hill, New South Wales, Australia",-33.7322602,150.9828131
Phase 3 Auto Surface Technicians,"The Ponds Blvd, The Ponds NSW 2769, Australia ",http://www.phase3autodetail.com.au/,"7WM6+P7 The Ponds, New South Wales, Australia",-33.7156419,150.9107278
AHcleans and Detailing,"74Z-76Z Glenhaven Rd, Glenhaven NSW 2156, Australia ",,"8222+5H Glenhaven, New South Wales, Australia",-33.6995807,151.0013768
Scooters Hand Car Wash & Cafe,"393 N Rocks Rd, Carlingford NSW 2118, Australia ",,"62JQ+7X Carlingford, New South Wales, Australia",-33.7692757,151.03996
Enviro Car Wash & Cafe,"266 N Rocks Rd, North Rocks NSW 2151, Australia ",,"62FF+R4 North Rocks, New South Wales, Australia",-33.7754669,151.0228424
Shell,"4 Century Cct, Norwest NSW 2153, Australia ",https://find.shell.com/au/fuel/10110914-shell-reddy-express-norwest-business-park/en_AU,"7X87+HC Norwest, New South Wales, Australia",-33.7335642,150.9635499
Auto Detailing Doctors,"Unit 92/14 Loyalty Rd, North Rocks NSW 2151, Australia ",http://www.autodetailingdoctors.com.au/?utm_source=local&utm_medium=organic&utm_campaign=gmb&utm_content=website,"62F6+QF North Rocks, New South Wales, Australia",-33.7756062,151.0111328
A1 Car Detailing,"56 Forge St, Blacktown NSW 2148, Australia ",,"6WX7+7Q Blacktown, New South Wales, Australia",-33.7518377,150.9144972
Kmart Castle Hill,"Castle Towers, S/C/6-14 Castle St, Castle Hill NSW 2154, Australia ",https://www.kmart.com.au/store-detail/Kmart+Castle+Hill?utm_source=google&utm_medium=organic&utm_campaign=googleplaces&utm_content=kmart+castle+hill,"7294+WH Castle Hill, New South Wales, Australia",-33.730176,151.006422
"Fancy Car Auto Detailing - Car Detailing, Ceramic Coating, Detailers","16 Hyatt Cl, Rouse Hill NSW 2155, Australia ",https://www.facebook.com/FancyCarDetailing/,"8WGJ+RC Rouse Hill, New South Wales, Australia",-33.672997,150.931075
Sky Blue Hand Car Wash,"86 Kenthurst Rd, Kenthurst NSW 2156, Australia ",http://www.skybluehandcarwash.weebly.com/,"8296+48 Kenthurst, New South Wales, Australia",-33.6821972,151.010796
