Name,Address,Website,Plus-code,lat,lon
Car Care Products Sydney,"573 Parramatta Rd, Leichhardt NSW 2040, Australia ",http://www.carcareproducts.com.au/,"4562+9G Leichhardt, New South Wales, Australia",-33.88908,151.151338
Star Car Wash - Norton Street Plaza,"Norton Plaza, 55 Norton St, Leichhardt NSW 2040, Australia ",https://www.starcarwash.com.au/centres/leichhardt/?utm_source=google&utm_medium=organic&utm_campaign=gmb-listing,"4575+JC Leichhardt, New South Wales, Australia",-33.8859147,151.1585587
Five Dock Hand Car Wash,"315 Parramatta Rd, Haberfield NSW 2045, Australia ",,"44GH+48 Haberfield, New South Wales, Australia",-33.8747024,151.1283111
Star Car Wash - Summer Hill,"4A Parramatta Rd, Summer Hill NSW 2130, Australia ",https://www.starcarwash.com.au/centres/summer-hill/?utm_source=Google-Local&utm_medium=organic&utm_campaign=local-seo,,-33.8895006,151.1440719
Metro Self Serve Carwash,"20 Smidmore St, Marrickville NSW 2204, Australia ",http://www.marrickvillemetro.com.au/,"35RC+QV Marrickville, New South Wales, Australia",-33.908086,151.1721824
White Diamond Hand Car Wash,"273-277 Parramatta Rd, Haberfield NSW 2045, Australia ",http://www.diamondwash.com.au/,,-33.8747742,151.1288807
Flash Hand Car Wash,"400 Princes Hwy, St Peters NSW 2044, Australia ",,"35MC+2Q St Peters, New South Wales, Australia",-33.9174798,151.1719743
Classic1 Hand Carwash Cafe,"379 Princes Hwy, Sydenham NSW 2044, Australia ",,"35MC+3J Sydenham, New South Wales, Australia",-33.9172973,151.1715489
St. Peter’s express car wash,"379 Princes Hwy, St Peters NSW 2044, Australia ",,"35MC+3H St Peters, New South Wales, Australia",-33.9173061,151.1714676
Uncle Car Wash,"Leichhardt marketplace basement car park, Leichhardt NSW 2040, Australia ",,"448X+2F Leichhardt, New South Wales, Australia",-33.8849789,151.1486889
Wow Wash P/L.,"5 Parsons St, Rozelle NSW 2039, Australia ",http://www.wowwash.com.au/,,-33.865165,151.176503
POLY WASH,"718-722 Parramatta Rd, Croydon NSW 2132, Australia ",https://www.polywash.com.au/,"44H9+FX Croydon, New South Wales, Australia",-33.8713202,151.1199643
GYEON Australia,"573 Parramatta Rd, Leichhardt NSW 2040, Australia ",http://www.gyeonquartz.com.au/,"4562+9G Leichhardt, New South Wales, Australia",-33.8890797,151.151338
Complete Car Protection,"573 Parramatta Rd, Leichhardt NSW 2040, Australia ",https://completecarprotection.com.au/,"4562+9H Leichhardt, New South Wales, Australia",-33.8890897,151.151393
Goat Detailer,"11/13-15 Burrows Rd S, St Peters NSW 2044, Australia ",http://www.goatdetailer.com.au/,"35HG+CV St Peters, New South Wales, Australia",-33.9214029,151.1771355
Crystal Car Wash Café,"95 Ramsay St, Haberfield NSW 2045, Australia ",https://crystalcarwash.com/locations/haberfield-nsw/,"449R+84 Haberfield, New South Wales, Australia",-33.8816557,151.1402838
GOLDEN TOUCH HAND CAR WASH,"49 Queens Rd, Five Dock NSW 2046, Australia ",,"44HC+WX Five Dock, New South Wales, Australia",-33.8701364,151.1224249
One World Hand Car Wash & Cafe,"30 Cabarita Rd, Concord NSW 2137, Australia ",https://www.oneworldcarwash.com.au/,"44X5+C9 Concord, New South Wales, Australia",-33.8514458,151.10838
Goldenshine Car Wash.,"998 Botany Rd, Mascot NSW 2020, Australia ",https://goldenshine.com.au/,"359V+4F Mascot, New South Wales, Australia",-33.9321883,151.1937328
Star Car Wash - Headquarter Office,"Unit 43/34 – 36 Ralph St, Alexandria NSW 2015, Australia ",https://www.starcarwash.com.au/,"35JW+GV Alexandria, New South Wales, Australia",-33.9186866,151.1972141
World Square Xtream Hand Car Wash & Detailing,"World Square Shopping Centre, Car Park, Level P6/644 George St, Sydney NSW 2000, Australia ",https://www.xtreamcarwash.com.au/,"46C4+VC Sydney, New South Wales, Australia",-33.8777691,151.2060571
Dr. Car Wash & Detailing,"320 Parramatta Rd, Burwood NSW 2134, Australia ",http://drcarwash.com.au/,"44J4+7Q Burwood, New South Wales, Australia",-33.8693351,151.106903
Inner West Detailing,"Enter Justin St Lane, Way/30 Halloran St, Lilyfield NSW 2040, Australia ",http://iwdetailing.com.au/,"45H8+43 Lilyfield, New South Wales, Australia",-33.8722001,151.1651839
Crystal Car Wash Strathfield,"460 Parramatta Rd, Strathfield NSW 2135, Australia ",http://crystalcarwash.com/,,-33.8679762,151.0980506
Royal car detailing,"6 Commercial Rd, Kingsgrove NSW 2208, Australia ",,,-33.9397311,151.1000633
Summit Hand Car Wash & Detailing Centre Drummoyne,"Cnr Westbourne &, Hythe St, Drummoyne NSW 2047, Australia ",https://www.summitcarwash.com.au/drummoyne,,-33.8477086,151.1512969
Pro Detailing Sydney,"260 Great N Rd, Wareemba NSW 2046, Australia ",https://www.prodetailing.com.au/,"44RJ+RC Wareemba, New South Wales, Australia",-33.8579338,151.1311161
Budget Car Wash Mascot,"1041 Botany Rd, Mascot NSW 2020, Australia ",,"35FW+76 Mascot, New South Wales, Australia",-33.9268461,151.1955926
Star Car Wash - Alexandria Homemaker Centre,"Alexandria Homemaker Centre, Under Spotlight Sign, 49-59 O'Riordan St, Alexandria NSW 2015, Australia ",https://www.starcarwash.com.au/centres/alexandria/,"35PV+GM Alexandria, New South Wales, Australia",-33.9137229,151.1942367
Car Wash Kingdom,"412-416 Liverpool Rd, Croydon NSW 2132, Australia ",,"4468+J6 Croydon, New South Wales, Australia",-33.8883772,151.1155666
Pro Detailing,"2/240 Parramatta Rd, Burwood NSW 2134, Australia ",,"44J5+2X Burwood, New South Wales, Australia",-33.8699233,151.1098925
Car Wash Cafe,"Haberfield NSW 2045, Australia ",,"44GH+38 Haberfield, New South Wales, Australia",-33.8747947,151.1283746
Glosshaus,"Unit 41/566 Gardeners Rd, Alexandria NSW 2015, Australia ",http://www.glosshaus.com.au/,"35JM+4V Alexandria, New South Wales, Australia",-33.9196608,151.1846757
The Detailer Mortlake,"Bennett Ln, Mortlake NSW 2137, Australia ",,"5454+22 Mortlake, New South Wales, Australia",-33.8424586,151.1050115
Ultimate Detail,"78 Church St, Ashfield NSW 2131, Australia ",http://www.ultimatedetaill.com/,"44FF+5H Ashfield, New South Wales, Australia",-33.8770748,151.1239583
Tigerr Detailing,"1/26 Kent Rd, Mascot NSW 2020, Australia ",https://www.tigerrdetailing.com.au/,"35HM+6H Mascot, New South Wales, Australia",-33.9219686,151.1839098
Uncle Car Wash,"Leichhardt marketplace basement car park, Leichhardt NSW 2040, Australia ",,"448X+2F Leichhardt, New South Wales, Australia",-33.8849789,151.1486889
Diamond finish car wash,"235 O'Riordan St, Mascot NSW 2020, Australia ",http://www.diamondfinish.com.au/,"35CP+4H Mascot, New South Wales, Australia",-33.9297293,151.1864318
Concierge Car Wash - Westfield Burwood,"100 Burwood Rd, Burwood NSW 2134, Australia ",https://conciergecarwash.com.au/westfield-burwood-car-wash/,"44G4+59 Burwood, New South Wales, Australia",-33.8745651,151.1059151
Advanced carwash,"184 Liverpool Rd, Enfield NSW 2136, Australia ",,"437X+44 Enfield, New South Wales, Australia",-33.887232,151.0977821
Car Wash,"Neutral Bay NSW 2089, Australia ",,"56C8+8J Neutral Bay, New South Wales, Australia",-33.8292001,151.2165529
Concierge Car Wash - Broadway Shopping Centre,"1 Bay St, Broadway NSW 2007, Australia ",https://www.conciergecarwash.com.au/,"458V+QM Glebe, New South Wales, Australia",-33.8830279,151.1941862
Star Car Wash - Ashfield Mall,"Entry via Knox or, Ashfield Mall, Car Park, Level 1/260A Liverpool Rd, Ashfield NSW 2131, Australia ",https://www.starcarwash.com.au/centres/ashfield/?utm_source=google&utm_medium=organic&utm_campaign=gmb-listing,"446F+98 Ashfield, New South Wales, Australia",-33.8890655,151.1233143
Correct Detailing- Best Vehicle Detailing Sydney,"347 Princes Hwy, St Peters NSW 2044, Australia ",https://www.correctdetailing.com.au/,"35MC+7R St Peters, New South Wales, Australia",-33.9167858,151.1720379
Snap Car Wash Moore Park,"2 Todman Ave, Kensington NSW 2033, Australia ",https://snapcarwash.com.au/locations/moore-park/,"36W8+G2 Kensington, New South Wales, Australia",-33.9036982,151.2151132
Car Alchemist,"2/98 Joynton Ave, Zetland NSW 2017, Australia ",http://www.caralchemist.com/,"36W6+G4 Zetland, New South Wales, Australia",-33.9037457,151.2102584
Eco Steam Wash,"1 Barangaroo Ave, Barangaroo NSW 2000, Australia ",http://ecosteamwash.com.au/,"46P2+XF Barangaroo, New South Wales, Australia",-33.8625568,151.2012023
Fast Sale Car Detailing Sydney,"Suite 3, Level 27 Governor Macquarie Tower, 1 Farrer Pl, Sydney NSW 2000, Australia ",https://www.fastsaledetailing.com.au/,"46P6+8G Sydney, New South Wales, Australia",-33.8641591,151.2113333
Fine Shine Ceramic Coating,"Shop T66 2, 4 Defries Ave, Zetland NSW 2017, Australia ",https://ceramiccoating.sydney/,"36V7+V6 Zetland, New South Wales, Australia",-33.9052704,151.2130888
Highpressure mobile detailing & co,"Duke St, Campsie NSW 2194, Australia ",https://www.instagram.com/highpressuredetailing_co?igsh=MTJnN2w1bDhrdWR6dQ%3D%3D&utm_source=qr,"34J3+PQ Campsie, New South Wales, Australia",-33.9182301,151.104445
Autohub Auto Detailing,"11 Argyle St, Wolli Creek NSW 2205, Australia ",http://www.autohubdetailing.com.au/,"3582+9M Wolli Creek, New South Wales, Australia",-33.9340183,151.151628
Crystal Car Wash Kingsford,"417 Anzac Parade, Kingsford NSW 2032, Australia ",http://crystalcarwash.com/,"36FH+JW Kingsford, New South Wales, Australia",-33.9259228,151.2297537
Gil’s Mobile Detailing,"14 Bellevue St, Surry Hills NSW 2010, Australia ",http://gilsmobiledetailing.com.au/,"4686+GP Surry Hills, New South Wales, Australia",-33.8836998,151.2117567
Wax Car Wash,"375 Cleveland St, Redfern NSW 2016, Australia ",https://www.waxcarwash.com.au/,"4656+CF Redfern, New South Wales, Australia",-33.8914701,151.2112472
GM Car Wash,"Seventh St, Mascot NSW 2020, Australia ",,"357M+V8 Mascot, New South Wales, Australia",-33.9353371,151.1833229
levendis mobile carwash & detailing,"66 Frogmore St, Mascot NSW 2020, Australia ",,"358X+F9 Mascot, New South Wales, Australia",-33.9338149,151.1984741
Gem Premium Hand Car Wash Pagewood,"Under Coles Local Parking, 6 Tingwell Bvd, Entry Via, Finch Dr, Eastgardens NSW 2036, Australia ",https://gempremiumhandcarwashpagewood.com/,"365G+95 Eastgardens, New South Wales, Australia",-33.9415824,151.2254441
Campsie hand carwash,"14/28 Amy St, Campsie NSW 2194, Australia ",,"34P3+X2 Campsie, New South Wales, Australia",-33.912557,151.1025088
Paddington Auto Detailing,"56-58 Sutherland St, Paddington NSW 2021, Australia ",http://paddingtonautodetailing.com/?utm_source=google&utm_medium=wix_google_business_profile&utm_campaign=6827969449349459480,"468M+X8 Paddington, New South Wales, Australia",-33.8825717,151.2333705
Sydney mobile car wash,"394-396 Oxford St, Paddington NSW 2021, Australia ",https://sydney-mobile-car-wash.yolasite.com/,"467J+66 Paddington, New South Wales, Australia",-33.8869256,151.2305308
Laurinda car detailing pty ltd,"10 Lilian Fowler Pl, Marrickville NSW 2204, Australia ",http://www.laurindacardetailing.com.au/,"35R9+79 Marrickville, New South Wales, Australia",-33.909328,151.16848
Crystal Car Wash Edgecliff,"67 New South Head Rd, Edgecliff NSW 2021, Australia ",http://www.crystalcarwash.com/,"46FJ+6G Edgecliff, New South Wales, Australia",-33.8769513,151.2312987
Polish Perfection Detailing,"42C Formosa St, Drummoyne NSW 2047, Australia ",https://www.polishperfectiondetailing.com.au/,"45W4+5R Drummoyne, New South Wales, Australia",-33.8545155,151.1571061
DATSIG Detailing & Coating,"142a Bexley Rd, Clemton Park NSW 2206, Australia ",http://www.datsigdetailingservices.com.au/,"34C5+QM Clemton Park, New South Wales, Australia",-33.9280695,151.1091381
Star Car Wash - Birkenhead Point,"Centre Blue Level Car, Birkenhead Point Outlet, 19 Roseby St, Drummoyne NSW 2047, Australia ",https://www.starcarwash.com.au/centres/birkenhead-point/?utm_source=google&utm_medium=organic&utm_campaign=gmb-listing,"45V6+QR Drummoyne, New South Wales, Australia",-33.8555224,151.1621054
Pros Mobile Mechanic Sydney Carwash,"Glebe NSW 2037, Australia ",,"458V+FH Glebe, New South Wales, Australia",-33.8837862,151.1938764
Rejuvenate Detailing,"Wardell Rd, Dulwich Hill NSW 2203, Australia ",https://www.rejuvenatedetailing.com/,"34PQ+95 Dulwich Hill, New South Wales, Australia",-33.9140642,151.137895
Star Car Wash - Entertainment Quarter,"Star Car Wash, Entertainment Quarter, 116/122 Lang Rd, Moore Park NSW 2021, Australia ",https://www.starcarwash.com.au/centres/entertainment-quarter-2/?utm_source=google&utm_medium=organic&utm_campaign=gmb-appt,"463G+W4 Moore Park, New South Wales, Australia",-33.8952187,151.2253479
Dog Wash,"37 Crystal St, Petersham NSW 2049, Australia ",,"4555+QG Petersham, New South Wales, Australia",-33.8906155,151.1588311
Route 66 Hand Car Wash,"102 Marrickville Rd, Marrickville NSW 2204, Australia ",,"35P7+84 Marrickville, New South Wales, Australia",-33.9142064,151.1627959
Car Skinning Sydney,"50 McEvoy St, Waterloo NSW 2017, Australia ",http://carskinning.com.au/,"36X3+72 Waterloo, New South Wales, Australia",-33.9018553,151.2025132
Shynex Car Care - Waterless Wash Products,"78/788 Bourke St, Waterloo NSW 2017, Australia ",,"4627+P2 Waterloo, New South Wales, Australia",-33.8981415,151.2125209
Earlwood Car Wash,"200 Homer St, Earlwood NSW 2206, Australia ",,"34FH+49 Earlwood, New South Wales, Australia",-33.9272205,151.1283906
WoW detailing studio,"2 Watermans Quay, Barangaroo NSW 2000, Australia ",https://wowdetailing.com.au/,"46P2+RR Barangaroo, New South Wales, Australia",-33.8629486,151.2021122
Shell,"213-253 Parramatta Road, Walker St, Five Dock NSW 2046, Australia ",https://find.shell.com/au/fuel/10110818-shell-coles-express-five-dock/en_AU,"44J7+2V Five Dock, New South Wales, Australia",-33.8699971,151.1147304
PL cafe,"941/953 Bourke St, Waterloo NSW 2017, Australia ",,"36X5+77 Waterloo, New South Wales, Australia",-33.9018215,151.2082179
Alpine Autocare,"Contact for personal studio location, Platts Ave, Belmore NSW 2192, Australia ",https://www.fresha.com/book-now/alpine-autocare-fpov2riq/all-offer?id=1267318&pId=1202867,"33GV+VR Belmore, New South Wales, Australia",-33.9228484,151.0945862
